{"type":"FeatureCollection","features":[{"type":"Feature","properties":{"name":"Railway Street","cycleway:left":"lane","cycleway:right":"lane","highway":"tertiary","lanes":"2","lit":"yes","surface":"asphalt"},"geometry":{"type":"LineString","coordinates":[[-76.4955253,44.2479726],[-76.4935311,44.2481832],[-76.4933605,44.2481967],[-76.492749,44.2482453],[-76.4922574,44.2482908],[-76.4911146,44.2484232],[-76.4910393,44.2484327],[-76.4899985,44.2485634],[-76.4899957,44.2485638],[-76.4897251,44.2486026],[-76.4896445,44.2486139],[-76.4888496,44.2487236],[-76.4886221,44.2487376],[-76.4883518,44.2487543],[-76.488059,44.2487341],[-76.4877907,44.2486869],[-76.4876723,44.2486561],[-76.4875042,44.2486125],[-76.4872258,44.2485031],[-76.4870987,44.2484531]]}},{"type":"Feature","properties":{"name":"Montreal Street","cycleway":"lane","highway":"secondary","lanes":"2","lit":"yes","sidewalk":"separate","surface":"asphalt"},"geometry":{"type":"LineString","coordinates":[[-76.4818135,44.2596725],[-76.4814788,44.2603945],[-76.4812271,44.2609453]]}},{"type":"Feature","properties":{"name":"Sir John A. Macdonald Boulevard","expressway":"yes","highway":"secondary","lanes":"2","lit":"yes","maxspeed":"50","oneway":"yes","sidewalk":"no","surface":"asphalt"},"geometry":{"type":"LineString","coordinates":[[-76.5184099,44.2452566],[-76.5181151,44.2455948],[-76.5180092,44.2458494],[-76.5179662,44.2460733],[-76.5179689,44.2465517],[-76.5180226,44.2472914]]}},{"type":"Feature","properties":{"name":"Division Street","cycleway":"lane","highway":"secondary","lanes":"2","lcn":"yes","lit":"yes","sidewalk":"separate","surface":"asphalt"},"geometry":{"type":"LineString","coordinates":[[-76.4967242,44.2534193],[-76.4967097,44.2533271],[-76.4964691,44.2518047],[-76.4963347,44.2509078],[-76.4962954,44.2506138],[-76.4962353,44.2502465],[-76.4961724,44.2498618],[-76.4961573,44.2497836],[-76.4961456,44.2497],[-76.4960089,44.248882],[-76.4958936,44.2481756]]}},{"type":"Feature","properties":{"name":"John Counter Boulevard","highway":"secondary","lanes":"2","short_name":"John Counter Blvd","surface":"asphalt"},"geometry":{"type":"LineString","coordinates":[[-76.4809925,44.257343],[-76.4815029,44.2573172],[-76.48166,44.2573098],[-76.4816785,44.2573089],[-76.4827978,44.2572558],[-76.4829028,44.2572508]]}},{"type":"Feature","properties":{"name":"Concession Street","highway":"secondary","lanes":"3","lanes:backward":"2","lanes:forward":"1","lit":"yes","sidewalk":"separate","surface":"asphalt","turn:lanes:backward":"left|none"},"geometry":{"type":"LineString","coordinates":[[-76.4949582,44.2418545],[-76.4951005,44.2417982],[-76.4952888,44.2417397],[-76.495421,44.2417067]]}},{"type":"Feature","properties":{"name":"Rideau Street","highway":"tertiary","lanes":"2","sidewalk":"left","surface":"asphalt"},"geometry":{"type":"LineString","coordinates":[[-76.4868209,44.2482348],[-76.4867432,44.2481393],[-76.4867051,44.2480925],[-76.4863542,44.2476612],[-76.486016,44.2472455],[-76.4853815,44.2464656],[-76.4846712,44.2453066],[-76.4843888,44.2448901],[-76.4842841,44.2447727],[-76.4842766,44.2447643],[-76.4839761,44.2444335],[-76.4838851,44.2442782],[-76.483785,44.2440575]]}},{"type":"Feature","properties":{"name":"Elliott Avenue","cycleway":"lane","cycleway:left":"lane","cycleway:right":"lane","highway":"tertiary","lanes":"2","lit":"yes","sidewalk":"separate","surface":"asphalt"},"geometry":{"type":"LineString","coordinates":[[-76.4987508,44.2563009],[-76.4991412,44.2562832],[-76.4996265,44.2562561],[-76.4997363,44.2562509],[-76.5009179,44.2561955],[-76.5011364,44.2561837],[-76.5016334,44.2561561],[-76.5024207,44.2561208],[-76.50293,44.2560986],[-76.5038231,44.2560544],[-76.5039146,44.2560498],[-76.505024,44.2559888],[-76.5054103,44.255978]]}},{"type":"Feature","properties":{"name":"Leroy Grant Drive","cycleway":"separate","hgv":"no","highway":"tertiary","lanes":"2","lit":"yes","sidewalk":"separate","surface":"asphalt"},"geometry":{"type":"LineString","coordinates":[[-76.5062456,44.2592817],[-76.5062336,44.259156],[-76.506088,44.2579361],[-76.5059473,44.2564212]]}},{"type":"Feature","properties":{"name":"Concession Street","highway":"secondary","lanes":"1","lit":"yes","oneway":"yes","sidewalk":"separate","surface":"asphalt"},"geometry":{"type":"LineString","coordinates":[[-76.5058966,44.2412422],[-76.5060072,44.2412805],[-76.5061234,44.2413132],[-76.5062043,44.2413378],[-76.5062297,44.2413457],[-76.5063905,44.2413961],[-76.5064523,44.2414235],[-76.5065612,44.2414879]]}},{"type":"Feature","properties":{"name":"Princess Street","cycleway":"lane","highway":"primary","lanes":"2","lit":"yes","maxspeed":"50","note":"Former provincial highway - downloaded in 1998 - sections in Kingston are now designated \"Kingston 2\"","parking:both":"lane","ref":"2","sidewalk":"separate","surface":"asphalt","wikipedia":"en:Princess Street (Kingston, Ontario)"},"geometry":{"type":"LineString","coordinates":[[-76.4936577,44.233714],[-76.4948499,44.2341804],[-76.4954188,44.2344112],[-76.4955388,44.2344599],[-76.4956483,44.2345043],[-76.4957597,44.2345506],[-76.4962178,44.2347408],[-76.4964119,44.2348213],[-76.4967194,44.234951],[-76.4967929,44.234982]]}},{"type":"Feature","properties":{"name":"Princess Street","highway":"primary","lanes":"2","lit":"yes","maxspeed":"50","note":"Former provincial highway - downloaded in 1998 - sections in Kingston are now designated \"Kingston 2\"","oneway":"yes","ref":"2","sidewalk":"separate","surface":"asphalt","wikipedia":"en:Princess Street (Kingston, Ontario)"},"geometry":{"type":"LineString","coordinates":[[-76.518971,44.2446115],[-76.5191219,44.2446695],[-76.5192272,44.2447183],[-76.5195874,44.2448818],[-76.5202633,44.2451962],[-76.5204099,44.2452093]]}},{"type":"Feature","properties":{"name":"Princess Street","highway":"primary","lanes":"3","lit":"yes","maxspeed":"50","note":"Former provincial highway - downloaded in 1998 - sections in Kingston are now designated \"Kingston 2\"","oneway":"yes","ref":"2","sidewalk":"separate","surface":"asphalt","wikipedia":"en:Princess Street (Kingston, Ontario)"},"geometry":{"type":"LineString","coordinates":[[-76.51277,44.2418273],[-76.5138551,44.2423013],[-76.514299,44.2424953]]}},{"type":"Feature","properties":{"name":"Princess Street","highway":"primary","lanes":"2","lit":"yes","maxspeed":"50","note":"Former provincial highway - downloaded in 1998 - sections in Kingston are now designated \"Kingston 2\"","oneway":"yes","parking:lane:both:parallel":"street_side","ref":"2","sidewalk":"separate","surface":"asphalt","wikidata":"Q7244835","wikipedia":"en:Princess Street (Kingston, Ontario)"},"geometry":{"type":"LineString","coordinates":[[-76.4930485,44.2334502],[-76.4928805,44.2333678],[-76.492764,44.2333292],[-76.4926354,44.2332824],[-76.4921951,44.2331222],[-76.4919845,44.2330507],[-76.4918147,44.2330182],[-76.491329,44.2329451],[-76.4910678,44.2329036],[-76.4908775,44.2328733],[-76.4907702,44.232857],[-76.4906676,44.2328417],[-76.4891215,44.2326057],[-76.4890214,44.2325912],[-76.48893,44.2325768],[-76.4886166,44.2325299],[-76.4874551,44.2323551],[-76.4872786,44.2323286],[-76.4856471,44.2320775],[-76.4855558,44.2320613]]}},{"type":"Feature","properties":{"name":"Sir John A. Macdonald Boulevard","expressway":"yes","highway":"secondary","lanes":"3","lit":"yes","maxspeed":"60","oneway":"yes","sidewalk":"no","surface":"asphalt"},"geometry":{"type":"LineString","coordinates":[[-76.5192501,44.2586157],[-76.519226,44.2582465]]}},{"type":"Feature","properties":{"name":"Sir John A. Macdonald Boulevard","expressway":"yes","highway":"secondary","lanes":"2","lit":"yes","maxspeed":"50","oneway":"yes","sidewalk":"separate","surface":"asphalt"},"geometry":{"type":"LineString","coordinates":[[-76.5125116,44.2211455],[-76.5124402,44.2212593],[-76.5125633,44.2223477],[-76.512593,44.2226106]]}},{"type":"Feature","properties":{"name":"Montreal Street","cycleway":"lane","highway":"secondary","lanes":"2","lit":"yes","sidewalk":"separate","surface":"asphalt"},"geometry":{"type":"LineString","coordinates":[[-76.4848423,44.2530634],[-76.4845501,44.2533779],[-76.4837818,44.2542048],[-76.4836085,44.2544077],[-76.4834583,44.2545902],[-76.4833403,44.2547766],[-76.4832578,44.2549369],[-76.4831847,44.2551166],[-76.4831188,44.2553295],[-76.4830828,44.2554758],[-76.4830632,44.2556287],[-76.4830533,44.2558274],[-76.4830533,44.2559965],[-76.4830586,44.2561886],[-76.4830636,44.2563762],[-76.4830613,44.2565267],[-76.4830495,44.2566677],[-76.4830291,44.256834],[-76.4830002,44.2569589]]}},{"type":"Feature","properties":{"name":"Montreal Street","bridge":"yes","cycleway":"lane","highway":"secondary","lanes":"2","layer":"1","lit":"yes","maxweight:signed":"no","sidewalk":"separate","surface":"asphalt"},"geometry":{"type":"LineString","coordinates":[[-76.4824326,44.2582564],[-76.4821158,44.258923]]}},{"type":"Feature","properties":{"name":"Union Street","cycleway":"lane","highway":"tertiary","lanes":"1","lcn":"yes","lit":"yes","maxspeed":"50","oneway":"yes","sidewalk":"separate","surface":"asphalt"},"geometry":{"type":"LineString","coordinates":[[-76.5119442,44.2238512],[-76.5121638,44.2238179],[-76.5126128,44.2237084],[-76.512686,44.2236906]]}},{"type":"Feature","properties":{"name":"Yonge Street","alt_name":"Main Street","highway":"tertiary","lanes":"2","surface":"asphalt"},"geometry":{"type":"LineString","coordinates":[[-76.5176272,44.220859],[-76.5175858,44.2209252],[-76.5175717,44.2209498],[-76.5175991,44.2213703],[-76.5176438,44.2220705],[-76.5176457,44.2220931],[-76.5176507,44.2221676]]}},{"type":"Feature","properties":{"name":"Palace Road","highway":"secondary","lanes":"2","lcn":"yes","lit":"yes","oneway":"no","sidewalk":"separate","surface":"asphalt"},"geometry":{"type":"LineString","coordinates":[[-76.513667,44.2323193],[-76.51366,44.2322547],[-76.5136582,44.2322302],[-76.5136352,44.2319666],[-76.5136124,44.2317054],[-76.5135987,44.2315478],[-76.5135736,44.2311983]]}},{"type":"Feature","properties":{"name":"Brock Street","highway":"secondary","lanes":"1","lit":"yes","oneway":"yes","sidewalk":"no","surface":"asphalt"},"geometry":{"type":"LineString","coordinates":[[-76.513667,44.2323193],[-76.5139228,44.2323077],[-76.5141012,44.2323135],[-76.5142025,44.2323187],[-76.5142675,44.2323288],[-76.5143258,44.2323471],[-76.5143774,44.2323759],[-76.5144139,44.2324118],[-76.5144451,44.2324573],[-76.5145505,44.2326373]]}},{"type":"Feature","properties":{"name":"Barrack Street","highway":"tertiary","lanes":"2","lit":"yes","sidewalk":"separate","surface":"asphalt"},"geometry":{"type":"LineString","coordinates":[[-76.4837722,44.2336694],[-76.4837005,44.2336593],[-76.483675,44.2336547],[-76.4834729,44.2336232],[-76.4834189,44.2336143],[-76.4826656,44.2334902],[-76.4825603,44.2334729],[-76.4819782,44.2333779],[-76.4818981,44.2333645],[-76.481866,44.2333592]]}},{"type":"Feature","properties":{"name":"Concession Street","highway":"secondary","lanes":"2","lit":"yes","oneway":"yes","sidewalk":"separate","surface":"asphalt"},"geometry":{"type":"LineString","coordinates":[[-76.5105599,44.2411609],[-76.5104331,44.2411624],[-76.509646,44.2411922],[-76.5089959,44.2412138],[-76.5087931,44.2412231],[-76.5085195,44.2412331],[-76.5083597,44.2412377],[-76.5080737,44.241246],[-76.5076923,44.2412494],[-76.5076452,44.2412485],[-76.5073878,44.2412432],[-76.5071607,44.2412341],[-76.5068851,44.2412379]]}},{"type":"Feature","properties":{"name":"Johnson Street","cycleway:right":"lane","highway":"secondary","lanes":"2","lcn":"yes","lit":"yes","oneway":"yes","sidewalk":"separate","surface":"asphalt"},"geometry":{"type":"LineString","coordinates":[[-76.5086642,44.2312865],[-76.5081799,44.2313059],[-76.5080461,44.2313112],[-76.5077229,44.2313208],[-76.506772,44.2313573],[-76.5051534,44.2314059],[-76.5050588,44.2314087],[-76.5049736,44.2314087],[-76.5039033,44.2314442],[-76.5038202,44.231447],[-76.5033428,44.2314628],[-76.5028332,44.2314797],[-76.5027542,44.2314827],[-76.5026682,44.2314839],[-76.5017299,44.231513],[-76.5013956,44.2315207],[-76.5001591,44.2315639],[-76.4986406,44.2316146],[-76.4972168,44.2316673],[-76.4971285,44.2316706],[-76.4970555,44.2316723],[-76.4957321,44.2317084],[-76.4956502,44.2317002],[-76.4955712,44.2316923],[-76.4942742,44.2314952],[-76.4940897,44.2314667],[-76.4932515,44.2313375],[-76.4930521,44.2313067],[-76.4929655,44.2312935]]}},{"type":"Feature","properties":{"name":"Johnson Street","cycleway:right":"lane","highway":"secondary","lanes":"2","lcn":"yes","lit":"yes","oneway":"yes","sidewalk":"separate","surface":"asphalt"},"geometry":{"type":"LineString","coordinates":[[-76.514536,44.2309284],[-76.5143847,44.2309372],[-76.5142501,44.2309451],[-76.5135471,44.2309861]]}},{"type":"Feature","properties":{"name":"Union Street","highway":"tertiary","lanes":"1","lit":"yes","maxspeed":"40","oneway":"yes","sidewalk":"separate","surface":"asphalt"},"geometry":{"type":"LineString","coordinates":[[-76.5198363,44.2210283],[-76.5200359,44.2209282]]}},{"type":"Feature","properties":{"name":"Johnson Street","highway":"secondary","lanes":"1","lcn":"yes","lit":"yes","oneway":"yes","sidewalk":"separate","surface":"asphalt"},"geometry":{"type":"LineString","coordinates":[[-76.5135736,44.2311983],[-76.5136396,44.2311494],[-76.5136838,44.2311126],[-76.5136908,44.2311068],[-76.5137809,44.2310725]]}},{"type":"Feature","properties":{"name":"Johnson Street","community_safety_zone":"yes","cycleway:left":"lane","cycleway:right":"lane","highway":"secondary","lanes":"2","lcn":"yes","lit":"yes","sidewalk":"separate","surface":"asphalt"},"geometry":{"type":"LineString","coordinates":[[-76.5164061,44.2308279],[-76.5166506,44.230799],[-76.5178036,44.2306924],[-76.5183762,44.2306471],[-76.5184901,44.2306342]]}},{"type":"Feature","properties":{"name":"Queen Street","highway":"primary","lanes":"4","lit":"yes","note":"Former provincial highway - downloaded in 1998 - sections in Kingston are now designated \"Kingston 2\"","parking:left":"yes","parking:left:orientation":"parallel","ref":"2","sidewalk":"separate","surface":"asphalt"},"geometry":{"type":"LineString","coordinates":[[-76.4806737,44.2322122],[-76.4807858,44.2322282],[-76.4812866,44.2323035],[-76.4814895,44.2323358],[-76.4816773,44.2323657],[-76.4820809,44.23243],[-76.4821628,44.2324431],[-76.4822668,44.2324596],[-76.4833598,44.2326337],[-76.4838207,44.2327071],[-76.4839361,44.2327241]]}},{"type":"Feature","properties":{"name":"Ontario Street","highway":"primary","lanes":"2","lit":"yes","note":"Former provincial highway - downloaded in 1998 - sections in Kingston are now designated \"Kingston 2\"","ref":"2","sidewalk":"separate","surface":"asphalt"},"geometry":{"type":"LineString","coordinates":[[-76.4789131,44.232882],[-76.4789312,44.2328184],[-76.479027,44.2325092],[-76.4791711,44.2320832],[-76.4792043,44.2319875]]}},{"type":"Feature","properties":{"name":"Ferry Unloading Lanes","highway":"tertiary","lanes":"2","oneway":"yes","surface":"paved"},"geometry":{"type":"LineString","coordinates":[[-76.477857,44.2327322],[-76.4779707,44.2327546],[-76.478008,44.2327597],[-76.4782865,44.2327979],[-76.4788158,44.2328723],[-76.4789131,44.232882]]}},{"type":"Feature","properties":{"name":"King Street West","highway":"secondary","lanes":"2","lit":"yes","maxspeed":"50","sidewalk":"separate","surface":"asphalt"},"geometry":{"type":"LineString","coordinates":[[-76.4926268,44.2227248],[-76.4927071,44.2227437],[-76.4928028,44.2227675],[-76.4929058,44.2227955],[-76.4930317,44.2228335],[-76.4933596,44.2229316],[-76.4934726,44.2229572],[-76.4936233,44.2229812],[-76.4939053,44.222996],[-76.4944258,44.2229951],[-76.4947526,44.2229919],[-76.4948772,44.222985],[-76.4950097,44.2229796],[-76.4950891,44.222972]]}},{"type":"Feature","properties":{"name":"Brock Street","highway":"secondary","lanes":"2","lcn":"yes","lit":"yes","oneway":"yes","sidewalk":"separate","surface":"paving_stones"},"geometry":{"type":"LineString","coordinates":[[-76.4799627,44.2302573],[-76.4811527,44.2304387],[-76.481265,44.2304558]]}},{"type":"Feature","properties":{"name":"Palace Road","highway":"tertiary","lanes":"2","lit":"yes","sidewalk":"separate","surface":"asphalt"},"geometry":{"type":"LineString","coordinates":[[-76.513667,44.2323193],[-76.5136724,44.2323762],[-76.513676,44.2324105],[-76.513964,44.2352948],[-76.5139848,44.2355116],[-76.5140294,44.2359766],[-76.5140663,44.2363415],[-76.5141347,44.237042],[-76.514191,44.2375954],[-76.5142393,44.2381354]]}},{"type":"Feature","properties":{"name":"Sir John A. Macdonald Boulevard","expressway":"yes","highway":"secondary","lanes":"2","lit":"yes","maxspeed":"50","oneway":"yes","sidewalk":"separate","surface":"asphalt"},"geometry":{"type":"LineString","coordinates":[[-76.5144608,44.2302791],[-76.5143149,44.2299585],[-76.5136339,44.2289459],[-76.5135177,44.228713],[-76.5133972,44.2284012],[-76.5133365,44.2280557],[-76.5132641,44.2273884],[-76.5131141,44.2261427],[-76.5129946,44.2250211]]}},{"type":"Feature","properties":{"name":"Johnson Street","cycleway:right":"lane","highway":"secondary","lanes":"2","lcn":"yes","oneway":"yes","surface":"asphalt"},"geometry":{"type":"LineString","coordinates":[[-76.5145491,44.231029],[-76.5146779,44.2310262],[-76.5158762,44.2309317],[-76.5164061,44.2308279]]}},{"type":"Feature","properties":{"name":"Johnson Street","cycleway:right":"lane","highway":"secondary","lanes":"3","lcn":"yes","oneway":"yes","surface":"asphalt","turn:lanes":"left||"},"geometry":{"type":"LineString","coordinates":[[-76.5153162,44.2308774],[-76.5146631,44.2309201],[-76.514536,44.2309284]]}},{"type":"Feature","properties":{"name":"Niagara Park","highway":"tertiary","lanes":"2","maxspeed":"30","name:en":"Niagara Park","name:fr":"Parc Niagara","oneway":"yes","surface":"asphalt"},"geometry":{"type":"LineString","coordinates":[[-76.4554534,44.2400177],[-76.4554129,44.2398979],[-76.4554055,44.239876],[-76.4553842,44.2397724],[-76.4553768,44.2396743],[-76.4553811,44.2395409],[-76.4553463,44.2394326]]}},{"type":"Feature","properties":{"name":"Craftsman Boulevard","access":"permissive","highway":"tertiary","lanes":"2","name:en":"Craftsman Boulevard","name:fr":"Boulevard Craftsman","sidewalk":"left","surface":"asphalt"},"geometry":{"type":"LineString","coordinates":[[-76.4620665,44.2463343],[-76.4607327,44.2460553],[-76.4603933,44.2459766],[-76.46011,44.2458659],[-76.4598514,44.2456885],[-76.4596816,44.2455111],[-76.4595886,44.2453181],[-76.459555,44.2451712],[-76.4595067,44.2447743],[-76.4594543,44.2443155]]}},{"type":"Feature","properties":{"name":"Barrie Street","highway":"tertiary","lanes":"2","maxspeed":"40","surface":"asphalt"},"geometry":{"type":"LineString","coordinates":[[-76.4903471,44.2231482],[-76.490298,44.2228961],[-76.4902921,44.2227885]]}},{"type":"Feature","properties":{"name":"LaSalle Causeway","access:conditional":"no @ (2025 Aug 03,10,17,24,31, Sep 07 06:00-22:00; 2025 Aug 05 11:00-17:00; 2025 Aug 07 09:30-14:30; 2025 Sep 21, Oct 05,12 06:00-20:00)","bridge":"yes","cycleway":"shared_lane","highway":"primary","lanes":"2","layer":"1","lit":"yes","maxheight":"4.2","maxspeed":"50","note":"Former provincial highway - downloaded in 1998","ref":"2","sidewalk":"separate","surface":"asphalt"},"geometry":{"type":"LineString","coordinates":[[-76.4741454,44.234716],[-76.4748612,44.2346579]]}},{"type":"Feature","properties":{"name":"Ontario Street","cycleway":"shared_lane","highway":"primary","lanes":"2","lit":"yes","maxspeed":"50","note":"Former provincial highway - downloaded in 1998 - sections in Kingston are now designated \"Kingston 2\"","ref":"2","sidewalk":"separate","surface":"asphalt"},"geometry":{"type":"LineString","coordinates":[[-76.4772442,44.2344505],[-76.4773825,44.234423],[-76.4779474,44.2342836],[-76.4780841,44.2342498]]}},{"type":"Feature","properties":{"name":"Gore Road","highway":"tertiary","lanes":"2","maxspeed":"40","surface":"asphalt"},"geometry":{"type":"LineString","coordinates":[[-76.4526611,44.2598619],[-76.4527837,44.2598512],[-76.455511,44.2596131],[-76.4560739,44.2595578],[-76.4573237,44.2594535],[-76.4582182,44.2593738],[-76.4591455,44.2592816],[-76.4593478,44.2592574],[-76.4598209,44.2592007]]}},{"type":"Feature","properties":{"name":"Union Street","highway":"tertiary","lanes":"2","lcn":"yes","lit":"yes","maxspeed":"40","oneway":"yes","sidewalk":"separate","surface":"asphalt","turn:lanes":"left|through;right"},"geometry":{"type":"LineString","coordinates":[[-76.4947918,44.2278569],[-76.4949222,44.2278934],[-76.4954682,44.2279292],[-76.4955415,44.227936],[-76.4955722,44.2279388]]}},{"type":"Feature","properties":{"name":"Union Street","cycleway":"lane","highway":"tertiary","lanes":"1","lcn":"yes","lit":"yes","maxspeed":"50","oneway":"yes","sidewalk":"separate","surface":"asphalt"},"geometry":{"type":"LineString","coordinates":[[-76.5128309,44.2235715],[-76.5126775,44.2236121]]}},{"type":"Feature","properties":{"name":"Union Street","highway":"tertiary","lanes":"1","lcn":"yes","lit":"yes","maxspeed":"40","oneway":"yes","sidewalk":"separate","surface":"asphalt"},"geometry":{"type":"LineString","coordinates":[[-76.5200258,44.2207466],[-76.5200223,44.2207971],[-76.5200171,44.2208254],[-76.5199971,44.2208695],[-76.5199834,44.2208913],[-76.5198363,44.2210283]]}},{"type":"Feature","properties":{"name":"Sir John A. Macdonald Boulevard","expressway":"yes","highway":"secondary","lanes":"2","lit":"yes","maxspeed":"60","oneway":"yes","sidewalk":"no","surface":"asphalt"},"geometry":{"type":"LineString","coordinates":[[-76.5191441,44.259064],[-76.519144,44.2591509],[-76.5191435,44.2594253]]}},{"type":"Feature","properties":{"name":"LaSalle Causeway","cycleway":"shared_lane","highway":"primary","lanes":"2","lit":"yes","maxspeed":"50","note":"Former provincial highway - downloaded in 1998","ref":"2","sidewalk":"separate","surface":"asphalt"},"geometry":{"type":"LineString","coordinates":[[-76.4717767,44.2350075],[-76.4723764,44.2348951],[-76.4728162,44.2348363],[-76.4732304,44.234793],[-76.4733434,44.2347812],[-76.4741454,44.234716]]}},{"type":"Feature","properties":{"name":"LaSalle Causeway","bridge":"yes","highway":"primary","lanes":"2","layer":"1","lit":"yes","maxspeed":"50","maxweight:signed":"no","note":"Former provincial highway - downloaded in 1998","ref":"2","sidewalk":"separate","surface":"asphalt"},"geometry":{"type":"LineString","coordinates":[[-76.4712222,44.2351228],[-76.4717767,44.2350075]]}},{"type":"Feature","properties":{"name":"Barrie Street","highway":"tertiary","lanes":"2","surface":"asphalt"},"geometry":{"type":"LineString","coordinates":[[-76.4910257,44.2319343],[-76.4910065,44.2320031],[-76.4909423,44.2322349],[-76.4909046,44.232371],[-76.4907865,44.2327974],[-76.4907702,44.232857],[-76.4907513,44.2329273],[-76.4906725,44.2332159],[-76.4905519,44.2336571],[-76.4905313,44.2337373]]}},{"type":"Feature","properties":{"name":"Highway 15","alt_name":"County Road 15","highway":"secondary","lanes":"3","lanes:backward":"2","lanes:forward":"1","maxspeed":"60","ref":"15","short_name":"Hwy 15","surface":"asphalt","turn:lanes:backward":"left|right"},"geometry":{"type":"LineString","coordinates":[[-76.4583978,44.239725],[-76.458445,44.2398356],[-76.4586502,44.2403164],[-76.4586748,44.240374]]}},{"type":"Feature","properties":{"name":"Highway 15","alt_name":"County Road 15","highway":"secondary","lanes":"2","lit":"no","maxspeed":"60","oneway":"yes","ref":"15","short_name":"Hwy 15","sidewalk":"right","surface":"asphalt"},"geometry":{"type":"LineString","coordinates":[[-76.4603173,44.2591139],[-76.4603104,44.2592014],[-76.4602925,44.2593097],[-76.4602873,44.2593392],[-76.4602571,44.2595129],[-76.4601923,44.259755],[-76.4602012,44.2598597]]}},{"type":"Feature","properties":{"name":"Union Street","highway":"tertiary","lanes":"2","lcn":"yes","lit":"yes","maxspeed":"40","sidewalk":"separate","surface":"asphalt"},"geometry":{"type":"LineString","coordinates":[[-76.5198363,44.2210283],[-76.5197817,44.2210558],[-76.519376,44.22126],[-76.5188647,44.2215345],[-76.5185047,44.2217278],[-76.5177456,44.2221261],[-76.5176507,44.2221676],[-76.5175334,44.2222198],[-76.5173931,44.2222637],[-76.5171554,44.2223241],[-76.5161122,44.2225868],[-76.515979,44.2226253],[-76.5149903,44.2229371],[-76.5149187,44.2229607],[-76.5148608,44.2229796],[-76.5145981,44.2230651],[-76.5145247,44.2230887],[-76.5133953,44.2234435]]}},{"type":"Feature","properties":{"name":"LaSalle Causeway","cycleway":"shared_lane","highway":"primary","lanes":"2","lit":"yes","maxspeed":"50","note":"Former provincial highway - downloaded in 1998 - sections in Kingston are now designated \"Kingston 2\"","ref":"2","sidewalk":"separate","surface":"asphalt"},"geometry":{"type":"LineString","coordinates":[[-76.4748612,44.2346579],[-76.4750423,44.2346432],[-76.4755584,44.2346012],[-76.4756273,44.2345956],[-76.4759687,44.2345679]]}},{"type":"Feature","properties":{"name":"Highway 2","highway":"primary","lanes":"2","lit":"yes","maxspeed":"50","note":"Former provincial highway - downloaded in 1998 - sections in Kingston are now designated \"Kingston 2\"","old_name":"Highway 2","ref":"2","sidewalk":"separate","surface":"asphalt"},"geometry":{"type":"LineString","coordinates":[[-76.4703731,44.2352975],[-76.4707104,44.2352303],[-76.4712222,44.2351228]]}},{"type":"Feature","properties":{"name":"Ontario Street","highway":"secondary","lanes":"2","lit":"yes","sidewalk":"separate","surface":"asphalt"},"geometry":{"type":"LineString","coordinates":[[-76.4797804,44.2302225],[-76.4797212,44.2303108],[-76.4796694,44.2304421],[-76.4796114,44.2306325],[-76.4794928,44.2310405],[-76.4794692,44.2311069]]}},{"type":"Feature","properties":{"name":"King Street East","highway":"tertiary","lanes":"2","lit":"yes","sidewalk":"separate","surface":"asphalt"},"geometry":{"type":"LineString","coordinates":[[-76.4804354,44.2331222],[-76.4804518,44.2330625],[-76.4805221,44.2327853],[-76.480532,44.2327439],[-76.4805626,44.2326167],[-76.4805693,44.2325911],[-76.4806446,44.2323031],[-76.4806594,44.2322567],[-76.4806737,44.2322122],[-76.4806943,44.2321424],[-76.4807883,44.2318518],[-76.4809324,44.2314067],[-76.4809545,44.2313342],[-76.4809735,44.2312718],[-76.4812075,44.2305571]]}},{"type":"Feature","properties":{"name":"Division Street","cycleway":"shared_lane","highway":"primary","lanes":"2","lcn":"yes","lit":"yes","ref":"2","sidewalk":"separate","surface":"asphalt"},"geometry":{"type":"LineString","coordinates":[[-76.4932179,44.2341476],[-76.4931993,44.234058],[-76.4931838,44.2339833],[-76.4931792,44.233961],[-76.4931568,44.2338526]]}},{"type":"Feature","properties":{"name":"Division Street","highway":"tertiary","lanes":"2","lcn":"yes","lit":"yes","sidewalk":"separate","surface":"asphalt"},"geometry":{"type":"LineString","coordinates":[[-76.4929655,44.2312935],[-76.4929507,44.2313475],[-76.4928684,44.2316641],[-76.492853,44.2317259],[-76.4928365,44.2317889],[-76.4927509,44.2321327],[-76.4927448,44.2321935]]}},{"type":"Feature","properties":{"name":"King Street East","highway":"secondary","lanes":"2","lit":"yes","sidewalk":"separate","surface":"asphalt"},"geometry":{"type":"LineString","coordinates":[[-76.4862603,44.2248521],[-76.4863426,44.2248097],[-76.4872244,44.2243444]]}},{"type":"Feature","properties":{"name":"Concession Street","highway":"secondary","lanes":"1","lit":"yes","oneway":"yes","sidewalk":"separate","surface":"asphalt"},"geometry":{"type":"LineString","coordinates":[[-76.5068851,44.2412379],[-76.5059898,44.241242],[-76.5058966,44.2412422]]}},{"type":"Feature","properties":{"name":"Concession Street","highway":"secondary","lanes":"2","lit":"yes","oneway":"yes","sidewalk":"separate","surface":"asphalt"},"geometry":{"type":"LineString","coordinates":[[-76.5077493,44.2420022],[-76.5085391,44.2419844],[-76.5089551,44.2419736],[-76.5092218,44.2419596],[-76.5096662,44.2419137],[-76.5100986,44.2418387],[-76.5103872,44.2417711],[-76.5107024,44.2416549]]}},{"type":"Feature","properties":{"name":"Division Street","cycleway:right":"lane","highway":"secondary","lanes":"4","lcn":"yes","lit":"yes","oneway":"yes","sidewalk":"separate","surface":"asphalt","turn:lanes":"left|||right"},"geometry":{"type":"LineString","coordinates":[[-76.4976125,44.2590213],[-76.4975847,44.2592103],[-76.4976865,44.2595095],[-76.497745,44.2596244]]}},{"type":"Feature","properties":{"name":"John Counter Boulevard","cycleway:right":"lane","highway":"secondary","lanes":"4","lcn":"yes","lit":"yes","maxspeed":"60","oneway":"yes","sidewalk":"separate","surface":"asphalt","turn:lanes":"left|left||right"},"geometry":{"type":"LineString","coordinates":[[-76.499494,44.2596186],[-76.499282,44.259583],[-76.4981316,44.2596253],[-76.4979195,44.2596331]]}},{"type":"Feature","properties":{"name":"John Counter Boulevard","cycleway:right":"lane","highway":"secondary","lanes":"3","lcn":"yes","lit":"yes","maxspeed":"60","oneway":"yes","sidewalk":"separate","surface":"asphalt","turn:lanes":"left||right"},"geometry":{"type":"LineString","coordinates":[[-76.4967715,44.2595732],[-76.4970092,44.2596834],[-76.4973808,44.2597384],[-76.4976738,44.2597588],[-76.4978282,44.2597696]]}},{"type":"Feature","properties":{"name":"Division Street","highway":"secondary","lanes":"4","lit":"yes","maxspeed":"50","oneway":"yes","sidewalk":"separate","surface":"asphalt","turn:lanes":"left|||right"},"geometry":{"type":"LineString","coordinates":[[-76.498215,44.2605938],[-76.4981794,44.2602178],[-76.4980497,44.2598669],[-76.4980141,44.2597758]]}},{"type":"Feature","properties":{"name":"Division Street","cycleway":"lane","cycleway:left":"lane","cycleway:right":"lane","highway":"secondary","lanes":"4","lcn":"yes","lit":"yes","parking:both":"no","sidewalk":"separate","surface":"asphalt"},"geometry":{"type":"LineString","coordinates":[[-76.4976125,44.2590213],[-76.4973849,44.2577677],[-76.4972012,44.2564802],[-76.4971859,44.2563784]]}},{"type":"Feature","properties":{"name":"Division Street","cycleway":"lane","highway":"secondary","lanes":"2","lcn":"yes","lit":"yes","sidewalk":"separate","surface":"asphalt"},"geometry":{"type":"LineString","coordinates":[[-76.4970444,44.2556377],[-76.4969389,44.2549483],[-76.4969274,44.2548759],[-76.4968408,44.2542869],[-76.4967565,44.2536593],[-76.4967386,44.2535262],[-76.4967242,44.2534193]]}},{"type":"Feature","properties":{"name":"Brock Street","highway":"secondary","lanes":"2","lcn":"yes","lit":"yes","oneway":"yes","sidewalk":"separate","surface":"asphalt"},"geometry":{"type":"LineString","coordinates":[[-76.4827605,44.2306838],[-76.4828926,44.2307039],[-76.4831262,44.2307378],[-76.4831726,44.2307446],[-76.4839705,44.2308606],[-76.4843609,44.2309173],[-76.4844862,44.2309312]]}},{"type":"Feature","properties":{"name":"Brock Street","cycleway:right":"shared_lane","highway":"secondary","lanes":"3","lcn":"yes","lit":"yes","oneway":"yes","sidewalk":"separate","surface":"asphalt"},"geometry":{"type":"LineString","coordinates":[[-76.4844862,44.2309312],[-76.4845995,44.2309544],[-76.4851794,44.2310517],[-76.48546,44.2310921],[-76.4857322,44.2311308],[-76.4858227,44.2311441]]}},{"type":"Feature","properties":{"name":"Bagot Street","highway":"tertiary","lanes":"2","lit":"yes","parking:left":"yes","parking:left:orientation":"parallel","sidewalk":"separate","surface":"asphalt"},"geometry":{"type":"LineString","coordinates":[[-76.4851765,44.2300971],[-76.4852227,44.2300431],[-76.4858261,44.2293065],[-76.4858712,44.2292557],[-76.4864199,44.2286365],[-76.4864397,44.2286142],[-76.4864915,44.2285558],[-76.4865426,44.2284982],[-76.4865629,44.2284752],[-76.4871918,44.2277656],[-76.4878194,44.2270582],[-76.4878622,44.2270091],[-76.4879082,44.226964]]}},{"type":"Feature","properties":{"name":"Ontario Street","cycleway:right":"shared_lane","highway":"primary","lanes":"2","lit":"yes","maxspeed":"50","note":"Former provincial highway - downloaded in 1998 - sections in Kingston are now designated \"Kingston 2\"","oneway":"yes","ref":"2","sidewalk":"separate","surface":"asphalt"},"geometry":{"type":"LineString","coordinates":[[-76.4785783,44.2340289],[-76.4786406,44.2339227],[-76.4787282,44.2336284],[-76.4787344,44.2335761],[-76.4787486,44.2334565]]}},{"type":"Feature","properties":{"name":"Ontario Street","highway":"primary","lanes":"2","lit":"yes","maxspeed":"50","note":"Former provincial highway - downloaded in 1998 - sections in Kingston are now designated \"Kingston 2\"","ref":"2","sidewalk":"separate","surface":"asphalt"},"geometry":{"type":"LineString","coordinates":[[-76.4787486,44.2334565],[-76.4788979,44.2329353],[-76.4789131,44.232882]]}},{"type":"Feature","properties":{"name":"West Street","highway":"secondary","lanes":"2","lit":"yes","maxspeed":"40","sidewalk":"separate","surface":"asphalt"},"geometry":{"type":"LineString","coordinates":[[-76.4855295,44.2241673],[-76.4856407,44.2241828],[-76.4857516,44.224221],[-76.485824,44.2242697],[-76.4858766,44.2243244],[-76.4858994,44.2243481],[-76.4859455,44.2244151],[-76.4862115,44.2247803],[-76.4862603,44.2248521]]}},{"type":"Feature","properties":{"name":"John Counter Boulevard","cycleway:left":"lane","cycleway:right":"lane","highway":"secondary","lanes":"2","lcn":"yes","lit":"yes","maxspeed":"50","sidewalk":"separate","surface":"asphalt"},"geometry":{"type":"LineString","coordinates":[[-76.4869221,44.2570382],[-76.4885633,44.2569492],[-76.489218,44.2569277],[-76.4896375,44.2569416],[-76.4899941,44.2569644],[-76.4900872,44.2569748],[-76.4903148,44.2570004],[-76.4906536,44.2570384],[-76.4908842,44.2570815]]}},{"type":"Feature","properties":{"name":"Niagara Park","highway":"tertiary","lanes":"3","maxspeed":"30","name:en":"Niagara Park","name:fr":"Parc Niagara","oneway":"yes","surface":"asphalt"},"geometry":{"type":"LineString","coordinates":[[-76.4553463,44.2394326],[-76.4552801,44.2395423],[-76.4552743,44.2396737],[-76.4552939,44.239885],[-76.4552884,44.2399099],[-76.4552613,44.2400314]]}},{"type":"Feature","properties":{"name":"Union Street","cycleway":"lane","highway":"tertiary","lanes":"2","lcn":"yes","lit":"yes","maxspeed":"40","oneway":"yes","sidewalk":"separate","surface":"asphalt","turn:lanes":"left|through;right"},"geometry":{"type":"LineString","coordinates":[[-76.4961506,44.2279338],[-76.4960513,44.2279064],[-76.4958631,44.2278943],[-76.4957077,44.2278815],[-76.4956179,44.2278742],[-76.4955738,44.2278712]]}},{"type":"Feature","properties":{"name":"Union Street","cycleway":"lane","highway":"tertiary","lanes":"1","lcn":"yes","lit":"yes","maxspeed":"40","oneway":"yes","sidewalk":"separate","surface":"asphalt"},"geometry":{"type":"LineString","coordinates":[[-76.4955722,44.2279388],[-76.4956131,44.2279426],[-76.4957044,44.227951],[-76.495783,44.2279561],[-76.4960556,44.2279693],[-76.4961506,44.2279338]]}},{"type":"Feature","properties":{"name":"Union Street","highway":"tertiary","lanes":"2","lcn":"yes","lit":"yes","maxspeed":"40","parking:both":"yes","parking:both:orientation":"parallel","sidewalk":"separate","surface":"asphalt"},"geometry":{"type":"LineString","coordinates":[[-76.4947918,44.2278569],[-76.4944948,44.2278381],[-76.4937285,44.2277895],[-76.4934104,44.2277693],[-76.4930876,44.2277489],[-76.4929831,44.2277422],[-76.4928823,44.2277359],[-76.4918741,44.2276719],[-76.4918103,44.2276679],[-76.4909064,44.2276106],[-76.4908753,44.2276089],[-76.4907856,44.2276028]]}},{"type":"Feature","properties":{"name":"Union Street","highway":"tertiary","lanes":"1","lcn":"yes","lit":"yes","maxspeed":"40","oneway":"yes","sidewalk":"separate","surface":"asphalt"},"geometry":{"type":"LineString","coordinates":[[-76.4955738,44.2278712],[-76.4955382,44.2278685],[-76.4954666,44.227863],[-76.4949266,44.2278317],[-76.4947918,44.2278569]]}},{"type":"Feature","properties":{"name":"King Street West","highway":"secondary","lanes":"2","lit":"yes","maxspeed":"40","old_name":"Front Street","sidewalk":"separate","surface":"asphalt"},"geometry":{"type":"LineString","coordinates":[[-76.5176272,44.220859],[-76.5177241,44.2208546],[-76.5187876,44.2208061],[-76.51944,44.2207766],[-76.5199417,44.2207509],[-76.5200258,44.2207466]]}},{"type":"Feature","properties":{"name":"Union Street","highway":"tertiary","lanes":"1","lcn":"yes","lit":"yes","maxspeed":"40","oneway":"yes","sidewalk":"separate","surface":"asphalt"},"geometry":{"type":"LineString","coordinates":[[-76.5128376,44.2236479],[-76.5129413,44.2236188],[-76.5131714,44.223554],[-76.5133568,44.2234932],[-76.5133953,44.2234435]]}},{"type":"Feature","properties":{"name":"Union Street","cycleway":"lane","highway":"tertiary","lanes":"2","lcn":"yes","lit":"yes","maxspeed":"40","sidewalk":"separate","surface":"asphalt"},"geometry":{"type":"LineString","coordinates":[[-76.5119442,44.2238512],[-76.5116485,44.2239422],[-76.5113866,44.2240228],[-76.5111981,44.2240809],[-76.5098485,44.2244963],[-76.5091811,44.2247017],[-76.5086664,44.2248602],[-76.5083849,44.2249468],[-76.508269,44.2249823],[-76.5074291,44.2252334],[-76.5064911,44.2255265],[-76.5059279,44.2257008],[-76.5055579,44.2258148],[-76.5049294,44.2260085],[-76.5044682,44.2261519],[-76.5043896,44.2261774],[-76.5043744,44.2261829],[-76.5037693,44.2263569],[-76.5035561,44.2264203],[-76.5031358,44.2265548],[-76.5025099,44.2267455],[-76.5024725,44.2267576],[-76.5020118,44.2268934],[-76.5013746,44.2270112]]}},{"type":"Feature","properties":{"name":"Union Street","highway":"tertiary","lanes":"2","lcn":"yes","lit":"yes","maxspeed":"40","oneway":"yes","sidewalk":"separate","surface":"asphalt","turn:lanes":"left|"},"geometry":{"type":"LineString","coordinates":[[-76.5133953,44.2234435],[-76.5133083,44.2234444],[-76.5130251,44.2235197],[-76.5129229,44.2235469],[-76.5128309,44.2235715]]}},{"type":"Feature","properties":{"name":"University Avenue","cycleway":"lane","highway":"tertiary","lanes":"2","lit":"yes","maxspeed":"40","old_name":"Gordon Street","sidewalk":"separate","surface":"asphalt"},"geometry":{"type":"LineString","coordinates":[[-76.4956096,44.229808],[-76.4956106,44.2298669],[-76.4956115,44.2299221],[-76.4956244,44.2306474],[-76.4956256,44.2306956],[-76.4956489,44.2316342],[-76.4956502,44.2317002],[-76.4956508,44.2317541],[-76.4956707,44.2325771],[-76.4956718,44.232623]]}},{"type":"Feature","properties":{"name":"University Avenue","highway":"tertiary","lanes":"2","lit":"yes","maxspeed":"40","old_name":"Gordon Street","sidewalk":"separate","surface":"asphalt"},"geometry":{"type":"LineString","coordinates":[[-76.4955738,44.2278712],[-76.4955729,44.227906],[-76.4955722,44.2279388]]}},{"type":"Feature","properties":{"name":"Barrie Street","highway":"tertiary","lanes":"2","lit":"yes","maxspeed":"40","sidewalk":"separate","surface":"asphalt"},"geometry":{"type":"LineString","coordinates":[[-76.4905575,44.2253239],[-76.4905479,44.2252556],[-76.4905212,44.2249437],[-76.4905204,44.2249349]]}},{"type":"Feature","properties":{"name":"Barrie Street","highway":"tertiary","lanes":"2","lit":"yes","maxspeed":"40","parking:lane:right":"parallel","sidewalk":"separate","surface":"asphalt"},"geometry":{"type":"LineString","coordinates":[[-76.4910257,44.2319343],[-76.4910412,44.2318742],[-76.491117,44.2315845],[-76.4911487,44.2314528],[-76.4911625,44.2313598],[-76.4911677,44.2312757],[-76.4911663,44.2311893],[-76.4911581,44.2310969],[-76.4911479,44.2310241],[-76.4911392,44.230951],[-76.49109,44.2305474],[-76.491057,44.2302444],[-76.4910386,44.2300752],[-76.4910038,44.2297548],[-76.4909811,44.2295464],[-76.4909278,44.2290589],[-76.4909167,44.228957],[-76.4909072,44.2288697],[-76.4908994,44.2288024],[-76.4908433,44.2281525],[-76.4908268,44.227996],[-76.4907876,44.2276221],[-76.4907856,44.2276028],[-76.4907776,44.2275325],[-76.4907757,44.2275155],[-76.4907613,44.2273712],[-76.4907563,44.2273208],[-76.4907351,44.2271097],[-76.4906527,44.2262855],[-76.4906091,44.2258492],[-76.4906045,44.2258041],[-76.4905666,44.2254288],[-76.4905645,44.2254049],[-76.4905636,44.2253946],[-76.4905575,44.2253239]]}},{"type":"Feature","properties":{"name":"Princess Street","highway":"primary","lanes":"2","lit":"yes","note":"Former provincial highway - downloaded in 1998 - sections in Kingston are now designated \"Kingston 2\"","oneway":"yes","parking:lane:both:parallel":"street_side","ref":"2","sidewalk":"separate","surface":"asphalt","wikipedia":"en:Princess Street (Kingston, Ontario)"},"geometry":{"type":"LineString","coordinates":[[-76.4855558,44.2320613],[-76.4854562,44.2320437],[-76.4842792,44.2318542],[-76.4841805,44.2318398]]}},{"type":"Feature","properties":{"name":"Princess Street","highway":"primary","lanes":"2","lit":"yes","note":"Former provincial highway - downloaded in 1998 - sections in Kingston are now designated \"Kingston 2\"","oneway":"yes","parking:lane:both:parallel":"street_side","ref":"2","sidewalk":"separate","surface":"asphalt","wikipedia":"en:Princess Street (Kingston, Ontario)"},"geometry":{"type":"LineString","coordinates":[[-76.4841805,44.2318398],[-76.4840818,44.2318246],[-76.4825357,44.2315822],[-76.4824378,44.2315659],[-76.482351,44.2315525],[-76.4817386,44.2314604],[-76.4810597,44.2313511],[-76.4809545,44.2313342],[-76.4808588,44.2313181],[-76.4804511,44.2312539],[-76.4802031,44.2312172],[-76.4795844,44.2311256],[-76.4794692,44.2311069]]}},{"type":"Feature","properties":{"name":"Bagot Street","highway":"tertiary","lanes":"2","lit":"yes","sidewalk":"both","surface":"asphalt"},"geometry":{"type":"LineString","coordinates":[[-76.4841805,44.2318398],[-76.4842019,44.2317732],[-76.4843505,44.2312978],[-76.4844306,44.2310199],[-76.4844862,44.2309312]]}},{"type":"Feature","properties":{"name":"Princess Street","highway":"primary","lanes":"2","lit":"yes","note":"Former provincial highway - downloaded in 1998 - sections in Kingston are now designated \"Kingston 2\"","oneway":"yes","ref":"2","sidewalk":"separate","surface":"asphalt","wikipedia":"en:Princess Street (Kingston, Ontario)"},"geometry":{"type":"LineString","coordinates":[[-76.5115375,44.2411156],[-76.5114463,44.2410713],[-76.5108729,44.2407931]]}},{"type":"Feature","properties":{"name":"Bath Road","highway":"primary","lanes":"4","lit":"yes","maxspeed":"50","note":"Former provincial highway - downloaded in 1998","oneway":"yes","ref":"33","sidewalk":"separate","surface":"asphalt","turn:lanes":"left|none|none|right"},"geometry":{"type":"LineString","coordinates":[[-76.5154556,44.2406446],[-76.5146371,44.240719],[-76.5144981,44.2407317]]}},{"type":"Feature","properties":{"name":"Bath Road","highway":"primary","lanes":"2","lit":"yes","maxspeed":"50","note":"Former provincial highway - downloaded in 1998","oneway":"yes","ref":"33","sidewalk":"separate","surface":"asphalt"},"geometry":{"type":"LineString","coordinates":[[-76.5169955,44.24066],[-76.5188031,44.2404906],[-76.5189355,44.2404832],[-76.5191152,44.2404651]]}},{"type":"Feature","properties":{"name":"Concession Street","highway":"secondary","lanes":"2","oneway":"yes","ref":"33","surface":"asphalt"},"geometry":{"type":"LineString","coordinates":[[-76.5115375,44.2411156],[-76.5112954,44.24115]]}},{"type":"Feature","properties":{"name":"Bath Road","highway":"primary","lanes":"4","lit":"yes","maxspeed":"50","note":"Former provincial highway - downloaded in 1998","oneway":"yes","ref":"33","sidewalk":"separate","surface":"asphalt","turn:lanes":"left|||right"},"geometry":{"type":"LineString","coordinates":[[-76.5121832,44.2410926],[-76.5124991,44.241039],[-76.5127397,44.2409981],[-76.5128999,44.2409831],[-76.513107,44.2409662],[-76.5134221,44.2409405]]}},{"type":"Feature","properties":{"name":"Bath Road","highway":"primary","lanes":"2","lit":"yes","maxspeed":"50","note":"Former provincial highway - downloaded in 1998","oneway":"yes","ref":"33","restriction":"no_right_turn","sidewalk":"separate","surface":"asphalt"},"geometry":{"type":"LineString","coordinates":[[-76.512297,44.2409345],[-76.5116751,44.2410828],[-76.5115375,44.2411156]]}},{"type":"Feature","properties":{"name":"Princess Street","cycleway:left":"lane","highway":"primary","lanes":"2","lit":"yes","maxspeed":"50","note":"Former provincial highway - downloaded in 1998 - sections in Kingston are now designated \"Kingston 2\"","oneway":"no","ref":"2","sidewalk":"separate","surface":"asphalt","wikipedia":"en:Princess Street (Kingston, Ontario)"},"geometry":{"type":"LineString","coordinates":[[-76.5103092,44.2406267],[-76.5100691,44.2405199],[-76.5098612,44.2404298],[-76.5097999,44.2404048]]}},{"type":"Feature","properties":{"name":"Sir John A. Macdonald Boulevard","expressway":"yes","highway":"secondary","lanes":"2","lit":"yes","maxspeed":"50","old_name":"Avenue Road","oneway":"yes","sidewalk":"separate","surface":"asphalt"},"geometry":{"type":"LineString","coordinates":[[-76.5192208,44.241987],[-76.5192316,44.2420866],[-76.519246,44.2422192],[-76.5192532,44.2423525],[-76.5193014,44.2432146],[-76.5193052,44.2432904]]}},{"type":"Feature","properties":{"name":"Sir John A. Macdonald Boulevard","expressway":"yes","highway":"secondary","lanes":"4","lit":"yes","maxspeed":"50","old_name":"Avenue Road","oneway":"yes","sidewalk":"separate","surface":"asphalt","turn:lanes":"left|||right"},"geometry":{"type":"LineString","coordinates":[[-76.5145984,44.2316039],[-76.5145526,44.2311302],[-76.5145491,44.231029]]}},{"type":"Feature","properties":{"name":"Bath Road","highway":"primary","lanes":"2","lit":"yes","maxspeed":"50","note":"Former provincial highway - downloaded in 1998","oneway":"yes","ref":"33","sidewalk":"separate","surface":"asphalt"},"geometry":{"type":"LineString","coordinates":[[-76.5191094,44.2403552],[-76.5189253,44.2403705],[-76.5181157,44.240438]]}},{"type":"Feature","properties":{"name":"Bath Road","highway":"primary","lanes":"2","lit":"yes","maxspeed":"50","note":"Former provincial highway - downloaded in 1998","oneway":"yes","ref":"33","sidewalk":"separate","surface":"asphalt"},"geometry":{"type":"LineString","coordinates":[[-76.519288,44.2404501],[-76.5194007,44.2404423],[-76.5202809,44.2403816],[-76.5207374,44.240348],[-76.5215128,44.2402828],[-76.5233581,44.2401366],[-76.5233879,44.2401335],[-76.5240039,44.2400695]]}},{"type":"Feature","properties":{"name":"Division Street","cycleway:both":"lane","highway":"tertiary","lanes":"2","lcn":"yes","lit":"yes","sidewalk":"separate","surface":"asphalt"},"geometry":{"type":"LineString","coordinates":[[-76.4927448,44.2321935],[-76.492743,44.2322511],[-76.4928623,44.2327493],[-76.492935,44.2329997]]}},{"type":"Feature","properties":{"name":"Brock Street","cycleway:right":"lane","highway":"secondary","lanes":"2","lcn":"yes","lit":"yes","oneway":"yes","sidewalk":"separate","surface":"asphalt"},"geometry":{"type":"LineString","coordinates":[[-76.4956718,44.232623],[-76.4957597,44.2326372],[-76.4961172,44.2326911],[-76.497145,44.2328459],[-76.4972436,44.2328652],[-76.4973495,44.2328854],[-76.4975591,44.2329039],[-76.4986704,44.2328727],[-76.498763,44.2328689],[-76.4988408,44.2328631],[-76.5001805,44.2328189],[-76.5002912,44.2328194],[-76.5003729,44.2328182],[-76.501525,44.2327795],[-76.5020646,44.2327689],[-76.5026629,44.2327571],[-76.5027661,44.2327631],[-76.5028343,44.2327679],[-76.502902,44.2327722],[-76.5034971,44.2327585],[-76.5039654,44.2327477],[-76.5050244,44.2327069],[-76.5051026,44.2327038],[-76.505182,44.2327006],[-76.5058399,44.2326729],[-76.5063839,44.2326509],[-76.5068402,44.2326325],[-76.5068944,44.2326303],[-76.5078416,44.2325893],[-76.5087159,44.2325585],[-76.5087978,44.2325556]]}},{"type":"Feature","properties":{"name":"Johnson Street","cycleway:right":"shared_lane","highway":"secondary","lanes":"2","lcn":"yes","lit":"yes","oneway":"yes","sidewalk":"separate","surface":"asphalt"},"geometry":{"type":"LineString","coordinates":[[-76.4851765,44.2300971],[-76.4851059,44.230061],[-76.4842512,44.229669],[-76.4838958,44.2295062],[-76.483812,44.229466],[-76.4837376,44.2294317],[-76.4834837,44.2293148],[-76.4830526,44.2291164],[-76.4829258,44.229058],[-76.4828755,44.2290348]]}},{"type":"Feature","properties":{"name":"Palace Road","highway":"tertiary","lanes":"2","lit":"yes","sidewalk":"separate","surface":"asphalt"},"geometry":{"type":"LineString","coordinates":[[-76.5142393,44.2381354],[-76.5143053,44.2387968],[-76.5143855,44.2395469],[-76.5144182,44.2398873],[-76.5144284,44.2399936],[-76.514449,44.2402074],[-76.5144764,44.2404926],[-76.5144898,44.2406369],[-76.5144981,44.2407317]]}},{"type":"Feature","properties":{"name":"Bath Road","highway":"primary","lanes":"2","lit":"yes","maxspeed":"50","note":"Former provincial highway - downloaded in 1998","oneway":"yes","ref":"33","sidewalk":"separate","surface":"asphalt"},"geometry":{"type":"LineString","coordinates":[[-76.5145124,44.2408544],[-76.5146625,44.2408406],[-76.5152536,44.2407872],[-76.5167944,44.240675],[-76.5169955,44.24066]]}},{"type":"Feature","properties":{"name":"Bath Road","highway":"primary","lanes":"2","lit":"yes","maxspeed":"50","note":"Former provincial highway - downloaded in 1998","oneway":"yes","ref":"33","sidewalk":"separate","surface":"asphalt"},"geometry":{"type":"LineString","coordinates":[[-76.5144981,44.2407317],[-76.5143239,44.2407468],[-76.5141683,44.2407617],[-76.5138693,44.2407903],[-76.5134058,44.2408347],[-76.5128787,44.2408795],[-76.512297,44.2409345]]}},{"type":"Feature","properties":{"name":"Palace Road","highway":"tertiary","lanes":"2","lit":"yes","sidewalk":"separate","surface":"asphalt"},"geometry":{"type":"LineString","coordinates":[[-76.5144981,44.2407317],[-76.5145124,44.2408544]]}},{"type":"Feature","properties":{"name":"Division Street","cycleway":"lane","highway":"secondary","lanes":"4","lcn":"yes","lit":"yes","sidewalk":"separate","surface":"asphalt"},"geometry":{"type":"LineString","coordinates":[[-76.4971859,44.2563784],[-76.4971676,44.2562848],[-76.4970681,44.255776],[-76.4970444,44.2556377]]}},{"type":"Feature","properties":{"name":"Elliott Avenue","cycleway":"lane","cycleway:left":"lane","cycleway:right":"lane","highway":"tertiary","lanes":"2","lit":"yes","sidewalk":"separate","surface":"asphalt"},"geometry":{"type":"LineString","coordinates":[[-76.5059032,44.2559606],[-76.5057885,44.2559646],[-76.5054103,44.255978]]}},{"type":"Feature","properties":{"name":"Leroy Grant Drive","cycleway":"separate","highway":"tertiary","lanes":"2","lit":"yes","sidewalk":"separate","surface":"asphalt"},"geometry":{"type":"LineString","coordinates":[[-76.5059473,44.2564212],[-76.5059089,44.2560205],[-76.5059032,44.2559606]]}},{"type":"Feature","properties":{"name":"Leroy Grant Drive","cycleway":"separate","highway":"tertiary","lanes":"2","lit":"yes","sidewalk":"separate","surface":"asphalt"},"geometry":{"type":"LineString","coordinates":[[-76.5059032,44.2559606],[-76.5058941,44.2558648],[-76.5058916,44.2558402]]}},{"type":"Feature","properties":{"name":"Division Street","highway":"secondary","lanes":"2","lcn":"yes","lit":"yes","oneway":"yes","sidewalk":"separate","surface":"asphalt"},"geometry":{"type":"LineString","coordinates":[[-76.4980141,44.2597758],[-76.4979525,44.2596828],[-76.4979195,44.2596331]]}},{"type":"Feature","properties":{"name":"John Counter Boulevard","cycleway:right":"lane","highway":"secondary","lanes":"2","lcn":"yes","lit":"yes","maxspeed":"60","note":"Widened from 2 to 4 lanes in 2013","oneway":"yes","sidewalk":"separate","surface":"asphalt"},"geometry":{"type":"LineString","coordinates":[[-76.506262,44.2594324],[-76.5064697,44.2594249],[-76.5068978,44.2594095],[-76.5072622,44.2593972],[-76.5092372,44.2593744],[-76.5094478,44.2593694],[-76.5097217,44.2593543],[-76.5116728,44.2592469],[-76.5131436,44.2591427],[-76.5147425,44.2590527],[-76.5149858,44.2590481],[-76.5159775,44.2590514]]}},{"type":"Feature","properties":{"name":"John Counter Boulevard","cycleway:right":"lane","highway":"secondary","lanes":"2","lcn":"yes","lit":"yes","maxspeed":"60","oneway":"yes","sidewalk":"separate","surface":"asphalt"},"geometry":{"type":"LineString","coordinates":[[-76.4980141,44.2597758],[-76.4982089,44.2597637],[-76.4992842,44.2597017],[-76.499494,44.2596186]]}},{"type":"Feature","properties":{"name":"John Counter Boulevard","cycleway:right":"lane","highway":"secondary","lanes":"1","lcn":"yes","lit":"yes","maxspeed":"60","oneway":"yes","sidewalk":"separate","surface":"asphalt"},"geometry":{"type":"LineString","coordinates":[[-76.497745,44.2596244],[-76.497604,44.2596151],[-76.4974033,44.2596019],[-76.4971104,44.2595699],[-76.4967715,44.2595732]]}},{"type":"Feature","properties":{"name":"Division Street","highway":"secondary","lanes":"2","lcn":"yes","lit":"yes","oneway":"yes","sidewalk":"separate","surface":"asphalt"},"geometry":{"type":"LineString","coordinates":[[-76.497745,44.2596244],[-76.4978282,44.2597696]]}},{"type":"Feature","properties":{"name":"Johnson Street","cycleway:left":"lane","cycleway:right":"lane","highway":"secondary","lanes":"2","lcn":"yes","lit":"yes","sidewalk":"separate","surface":"asphalt"},"geometry":{"type":"LineString","coordinates":[[-76.5184901,44.2306342],[-76.5199822,44.2305419],[-76.5209442,44.2304805],[-76.521019,44.2304757],[-76.5224476,44.2303733],[-76.5224922,44.2303701]]}},{"type":"Feature","properties":{"name":"Yonge Street","highway":"tertiary","lanes":"1","lit":"yes","oneway":"yes","sidewalk":"separate","surface":"asphalt"},"geometry":{"type":"LineString","coordinates":[[-76.5182117,44.2277623],[-76.5181787,44.2278275],[-76.5181775,44.2278755],[-76.5182117,44.228386],[-76.5182322,44.2285521],[-76.5182543,44.2286466],[-76.5183086,44.2287355]]}},{"type":"Feature","properties":{"name":"Ontario Street","cycleway":"shoulder","highway":"primary","lanes":"1","lit":"yes","maxspeed":"50","maxspeed:advisory":"30","note":"Former provincial highway - downloaded in 1998 - sections in Kingston are now designated \"Kingston 2\"","oneway":"yes","ref":"2","sidewalk":"separate","surface":"asphalt"},"geometry":{"type":"LineString","coordinates":[[-76.4784747,44.2341415],[-76.4785178,44.2341005],[-76.4785783,44.2340289]]}},{"type":"Feature","properties":{"name":"Highway 2","highway":"primary","lanes":"2","note":"Former provincial highway - downloaded in 1998 - sections in Kingston are now designated \"Kingston 2\"","old_name":"Highway 2","ref":"2","surface":"asphalt"},"geometry":{"type":"LineString","coordinates":[[-76.4538753,44.240126],[-76.4488058,44.2404798],[-76.4483872,44.240508],[-76.4478467,44.2405433],[-76.438877,44.2411324]]}},{"type":"Feature","properties":{"name":"Highway 2","highway":"primary","lanes":"2","maxspeed":"60","note":"Former provincial highway - downloaded in 1998 - sections in Kingston are now designated \"Kingston 2\"","old_name":"Highway 2","ref":"2","sidewalk:both":"separate","surface":"asphalt"},"geometry":{"type":"LineString","coordinates":[[-76.4659547,44.2368666],[-76.4658386,44.2369134],[-76.4635248,44.2378521],[-76.4609574,44.2388486],[-76.4605045,44.2390308],[-76.4597021,44.2393466],[-76.4593406,44.2394691],[-76.4590055,44.2395689],[-76.4585764,44.2396871],[-76.4583978,44.239725]]}},{"type":"Feature","properties":{"name":"Highway 15","alt_name":"County Road 15","highway":"secondary","lanes":"2","maxspeed":"60","ref":"15","short_name":"Hwy 15","sidewalk:left":"no","sidewalk:right":"separate","surface":"asphalt"},"geometry":{"type":"LineString","coordinates":[[-76.4608353,44.2500227],[-76.4607491,44.2506612],[-76.4607326,44.2507939],[-76.4607194,44.2508996],[-76.4606808,44.2514165],[-76.4606715,44.2516296],[-76.4606649,44.2517809],[-76.4606482,44.2521624],[-76.4606468,44.2521948],[-76.4606371,44.252474],[-76.460612,44.2531984],[-76.4606021,44.2534805],[-76.4605993,44.2535657],[-76.4605938,44.2536527]]}},{"type":"Feature","properties":{"name":"Ontario Street","highway":"secondary","lanes":"2","lit":"yes","sidewalk":"separate","surface":"asphalt"},"geometry":{"type":"LineString","coordinates":[[-76.4814762,44.2283859],[-76.4815299,44.2283289],[-76.4818889,44.2279426],[-76.4821148,44.2276995],[-76.4821924,44.2276159],[-76.4824072,44.2273811],[-76.4825964,44.2271743],[-76.4826721,44.2270915],[-76.4828884,44.226855],[-76.4830766,44.2266508],[-76.4831562,44.2265645],[-76.4832635,44.2264482],[-76.4833445,44.2263603],[-76.4834223,44.2262759],[-76.4835292,44.2261598],[-76.4835884,44.2260955]]}},{"type":"Feature","properties":{"name":"King Street West","highway":"secondary","lanes":"3","lanes:backward":"2","lanes:forward":"1","lit":"yes","maxspeed":"50","sidewalk":"separate","surface":"asphalt","turn:lanes:backward":"left|"},"geometry":{"type":"LineString","coordinates":[[-76.5125116,44.2211455],[-76.5126888,44.2211353],[-76.5136855,44.2210635]]}},{"type":"Feature","properties":{"name":"Sir John A. Macdonald Boulevard","expressway":"yes","highway":"secondary","lanes":"2","lit":"yes","maxspeed":"50","oneway":"yes","sidewalk":"separate","surface":"asphalt"},"geometry":{"type":"LineString","coordinates":[[-76.512686,44.2236906],[-76.5126932,44.2237557],[-76.5127329,44.2241137]]}},{"type":"Feature","properties":{"name":"Sir John A. Macdonald Boulevard","expressway":"yes","highway":"secondary","lanes":"2","lit":"yes","maxspeed":"50","oneway":"yes","sidewalk":"separate","surface":"asphalt"},"geometry":{"type":"LineString","coordinates":[[-76.5128309,44.2235715],[-76.5128259,44.2235148],[-76.5127443,44.222645],[-76.5126435,44.2216484],[-76.512602,44.2212379],[-76.5125116,44.2211455]]}},{"type":"Feature","properties":{"name":"Union Street","cycleway":"lane","highway":"tertiary","lanes":"1","lcn":"yes","lit":"yes","maxspeed":"40","oneway":"yes","sidewalk":"separate","surface":"asphalt"},"geometry":{"type":"LineString","coordinates":[[-76.512686,44.2236906],[-76.5127454,44.2236732],[-76.5128376,44.2236479]]}},{"type":"Feature","properties":{"name":"Princess Street","highway":"primary","lanes":"2","lit":"yes","maxspeed":"50","note":"Former provincial highway - downloaded in 1998 - sections in Kingston are now designated \"Kingston 2\"","oneway":"yes","ref":"2","sidewalk":"separate","surface":"asphalt","wikipedia":"en:Princess Street (Kingston, Ontario)"},"geometry":{"type":"LineString","coordinates":[[-76.5165513,44.2434929],[-76.5166385,44.2435351],[-76.5167353,44.2435808],[-76.5176141,44.2439938],[-76.5189066,44.2445797],[-76.518971,44.2446115]]}},{"type":"Feature","properties":{"name":"Princess Street","highway":"primary","lanes":"3","lit":"yes","maxspeed":"50","note":"Former provincial highway - downloaded in 1998 - sections in Kingston are now designated \"Kingston 2\"","oneway":"yes","ref":"2","sidewalk":"separate","surface":"asphalt","wikipedia":"en:Princess Street (Kingston, Ontario)"},"geometry":{"type":"LineString","coordinates":[[-76.5167359,44.2434406],[-76.5166346,44.2433992],[-76.516568,44.2433695],[-76.5151826,44.2427517],[-76.5149373,44.2426361],[-76.5144148,44.242382],[-76.5131496,44.2418361],[-76.5123873,44.2415053],[-76.5122014,44.2414247]]}},{"type":"Feature","properties":{"name":"Sir John A. Macdonald Boulevard","expressway":"yes","highway":"secondary","lanes":"3","lit":"yes","maxspeed":"50","old_name":"Avenue Road","oneway":"yes","sidewalk":"separate","surface":"asphalt","turn:lanes":"left|none|none"},"geometry":{"type":"LineString","coordinates":[[-76.5189941,44.2395933],[-76.5191114,44.2402751],[-76.5191103,44.2403206],[-76.5191094,44.2403552]]}},{"type":"Feature","properties":{"name":"Bath Road","highway":"primary","lanes":"3","lit":"yes","maxspeed":"50","note":"Former provincial highway - downloaded in 1998. Left lane is bus left turn only","oneway":"yes","ref":"33","sidewalk":"separate","surface":"asphalt","turn:lanes":"left|none|none"},"geometry":{"type":"LineString","coordinates":[[-76.5181157,44.240438],[-76.5170922,44.2405297],[-76.5169709,44.2405406]]}},{"type":"Feature","properties":{"name":"Highway 15","alt_name":"County Road 15","highway":"secondary","lanes":"2","maxspeed":"60","ref":"15","short_name":"Hwy 15","sidewalk:left":"no","sidewalk:right":"separate","surface":"asphalt"},"geometry":{"type":"LineString","coordinates":[[-76.4620665,44.2463343],[-76.4620178,44.2464495],[-76.4619281,44.2466616],[-76.4615487,44.2473915]]}},{"type":"Feature","properties":{"name":"Montreal Street","highway":"secondary","lanes":"2","lit":"yes","parking:lane:both":"parallel","sidewalk":"separate","surface":"asphalt"},"geometry":{"type":"LineString","coordinates":[[-76.4852892,44.2329304],[-76.4852637,44.2330117],[-76.4850988,44.2335934],[-76.4850883,44.2339453],[-76.4850704,44.2346719],[-76.4850708,44.2347476]]}},{"type":"Feature","properties":{"name":"Ontario Street","highway":"secondary","lanes":"2","lit":"yes","sidewalk":"separate","surface":"asphalt"},"geometry":{"type":"LineString","coordinates":[[-76.4797804,44.2302225],[-76.4801444,44.2298233],[-76.4801866,44.2297781],[-76.4805171,44.2294242],[-76.4807142,44.2292113],[-76.4807642,44.2291558],[-76.4808129,44.2291025],[-76.4811247,44.2287637],[-76.4814125,44.2284509],[-76.4814762,44.2283859]]}},{"type":"Feature","properties":{"name":"Rideau Street","highway":"tertiary","lanes":"2","lit":"yes","maxspeed":"40","sidewalk":"separate","surface":"asphalt"},"geometry":{"type":"LineString","coordinates":[[-76.4828702,44.238273],[-76.4828439,44.2381369],[-76.4827071,44.2374303],[-76.4826809,44.2372715],[-76.482646,44.2370529]]}},{"type":"Feature","properties":{"name":"Sir John A. Macdonald Boulevard","expressway":"yes","highway":"secondary","lanes":"2","lit":"yes","maxspeed":"50","old_name":"Avenue Road","oneway":"yes","sidewalk":"separate","surface":"asphalt"},"geometry":{"type":"LineString","coordinates":[[-76.5191922,44.2445941],[-76.5192478,44.244535],[-76.519327,44.2444315],[-76.5194237,44.2442529],[-76.519461,44.2441106],[-76.5194845,44.2437635]]}},{"type":"Feature","properties":{"name":"Sir John A. Macdonald Boulevard","expressway":"yes","highway":"secondary","lanes":"2","lit":"yes","maxspeed":"50","old_name":"Avenue Road","oneway":"yes","sidewalk":"separate","surface":"asphalt"},"geometry":{"type":"LineString","coordinates":[[-76.5147041,44.2340967],[-76.5147471,44.2348034],[-76.5148082,44.2352067],[-76.5149287,44.2355266],[-76.5150836,44.235809],[-76.5154115,44.2361677],[-76.5158149,44.2365182],[-76.5160052,44.2366877],[-76.5161668,44.2368318],[-76.5163893,44.2370223],[-76.5174052,44.2378923],[-76.518372,44.2387201],[-76.5184166,44.238766],[-76.5186816,44.2390394],[-76.5188558,44.2393148],[-76.5189941,44.2395933]]}},{"type":"Feature","properties":{"name":"Sir John A. Macdonald Boulevard","expressway":"yes","highway":"secondary","lanes":"2","lit":"yes","maxspeed":"50","old_name":"Avenue Road","oneway":"yes","sidewalk":"separate","surface":"asphalt"},"geometry":{"type":"LineString","coordinates":[[-76.5191562,44.2396345],[-76.5190188,44.2392963],[-76.5188136,44.2389822],[-76.5185324,44.2387011],[-76.5175538,44.2378239],[-76.5173975,44.237682],[-76.5173407,44.2376304],[-76.5163623,44.2367829],[-76.5155015,44.2360416],[-76.5152512,44.2357416],[-76.5150682,44.235482],[-76.5149765,44.2352001],[-76.5149213,44.2347807],[-76.5148669,44.2341858]]}},{"type":"Feature","properties":{"name":"Apprentice Street","attribution":"GeoBase","geobase:acquisitionTechnique":"GPS","highway":"tertiary","lanes":"2","oneway":"yes","source":"Geobase_Import_2009","surface":"asphalt"},"geometry":{"type":"LineString","coordinates":[[-76.4552613,44.2400314],[-76.4552391,44.2401312],[-76.4552963,44.2405129],[-76.4552707,44.2405592],[-76.4551932,44.2405973]]}},{"type":"Feature","properties":{"name":"Artisan Road","attribution":"GeoBase","geobase:acquisitionTechnique":"GPS","highway":"tertiary","lanes":"2","oneway":"yes","source":"Geobase_Import_2009","statscan:rbuid":"2108237","surface":"asphalt"},"geometry":{"type":"LineString","coordinates":[[-76.4568634,44.2430048],[-76.4568321,44.2427794],[-76.4567567,44.2422353],[-76.4566297,44.2413199],[-76.4565971,44.241085],[-76.4565599,44.2408169],[-76.4565264,44.2407323],[-76.4564873,44.2406878],[-76.4564651,44.2406625],[-76.4563763,44.2405996],[-76.4562475,44.2405566],[-76.4561004,44.2405387],[-76.4558994,44.2405431],[-76.4556053,44.2405589]]}},{"type":"Feature","properties":{"name":"Artisan Road","attribution":"GeoBase","geobase:acquisitionTechnique":"GPS","highway":"tertiary","lanes":"2","oneway":"yes","source":"Geobase_Import_2009","surface":"asphalt"},"geometry":{"type":"LineString","coordinates":[[-76.4556053,44.2405589],[-76.4555473,44.2405335],[-76.4555322,44.2404998]]}},{"type":"Feature","properties":{"name":"Apprentice Street","highway":"tertiary","lanes":"2","oneway":"yes","surface":"asphalt"},"geometry":{"type":"LineString","coordinates":[[-76.4551932,44.2405973],[-76.4546446,44.2406432],[-76.4545457,44.2406743],[-76.4544671,44.2407217],[-76.4544125,44.2407749],[-76.454371,44.2408359],[-76.4543611,44.240906],[-76.4543685,44.2410223],[-76.4545118,44.2420561],[-76.4545314,44.2421971],[-76.454648,44.2430374],[-76.454664,44.243157]]}},{"type":"Feature","properties":{"name":"Brock Street","cycleway:right":"shared_lane","highway":"secondary","lanes":"2","lcn":"yes","lit":"yes","oneway":"yes","sidewalk":"separate","surface":"asphalt"},"geometry":{"type":"LineString","coordinates":[[-76.4858227,44.2311441],[-76.4859151,44.2311584],[-76.4859903,44.2311701],[-76.4862119,44.2312045],[-76.4862919,44.2312169],[-76.4872494,44.2313656],[-76.487312,44.2313753],[-76.4873436,44.2313802],[-76.487477,44.2314009]]}},{"type":"Feature","properties":{"name":"Sir John A. Macdonald Boulevard","expressway":"yes","highway":"secondary","lanes":"2","lit":"yes","maxspeed":"50","oneway":"yes","sidewalk":"no","surface":"asphalt"},"geometry":{"type":"LineString","coordinates":[[-76.5181628,44.2472967],[-76.518095,44.2461117],[-76.5181433,44.245883],[-76.518217,44.2457063],[-76.5185185,44.2453163]]}},{"type":"Feature","properties":{"name":"Sir John A. Macdonald Boulevard","expressway":"yes","highway":"secondary","lanes":"2","lit":"yes","maxspeed":"60","oneway":"yes","sidewalk":"no","surface":"asphalt"},"geometry":{"type":"LineString","coordinates":[[-76.5180436,44.2477481],[-76.5180811,44.2483294]]}},{"type":"Feature","properties":{"name":"Union Street","cycleway":"lane","highway":"tertiary","lanes":"1","lcn":"yes","lit":"yes","maxspeed":"50","oneway":"yes","sidewalk":"separate","surface":"asphalt"},"geometry":{"type":"LineString","coordinates":[[-76.5126775,44.2236121],[-76.5125974,44.2236341],[-76.5121233,44.2237642],[-76.5119442,44.2238512]]}},{"type":"Feature","properties":{"name":"King Street East","highway":"secondary","lanes":"2","lit":"yes","sidewalk":"separate","surface":"asphalt"},"geometry":{"type":"LineString","coordinates":[[-76.4902921,44.2227885],[-76.4899061,44.2229736]]}},{"type":"Feature","properties":{"name":"Barrie Street","highway":"tertiary","lanes":"2","maxspeed":"40","sidewalk":"left","surface":"asphalt"},"geometry":{"type":"LineString","coordinates":[[-76.4903471,44.2231482],[-76.4903889,44.2235443],[-76.4903932,44.2235896],[-76.4905148,44.2248758],[-76.4905204,44.2249349]]}},{"type":"Feature","properties":{"name":"Queen Street","highway":"primary","lanes":"4","lit":"yes","note":"Former provincial highway - downloaded in 1998 - sections in Kingston are now designated \"Kingston 2\"","parking:lane:left":"parallel","ref":"2","sidewalk":"separate","surface":"asphalt"},"geometry":{"type":"LineString","coordinates":[[-76.4852892,44.2329304],[-76.4854048,44.2329494],[-76.4860594,44.2330523],[-76.4866412,44.2331438],[-76.486954,44.233193],[-76.4870424,44.233207],[-76.4871326,44.233221],[-76.4872622,44.2332405],[-76.4875377,44.2332826],[-76.4877592,44.2333164],[-76.4881904,44.2333822],[-76.4887075,44.2334611],[-76.4887932,44.2334731],[-76.4888876,44.2334863],[-76.489784,44.2336228],[-76.4900125,44.2336576],[-76.4904305,44.2337192],[-76.4905313,44.2337373],[-76.4906181,44.2337509],[-76.4916738,44.2339085],[-76.4922489,44.2339944],[-76.4927996,44.2340762]]}},{"type":"Feature","properties":{"name":"Bagot Street","highway":"tertiary","lanes":"2","lit":"yes","parking:lane:both:parallel":"street_side","sidewalk":"both","surface":"asphalt"},"geometry":{"type":"LineString","coordinates":[[-76.4839361,44.2327241],[-76.4839557,44.2326541],[-76.4841584,44.231911],[-76.4841805,44.2318398]]}},{"type":"Feature","properties":{"name":"Highway 2","highway":"primary","lanes":"2","maxspeed":"60","note":"Former provincial highway - downloaded in 1998 - sections in Kingston are now designated \"Kingston 2\"","old_name":"Highway 2","ref":"2","sidewalk:both":"separate","surface":"asphalt"},"geometry":{"type":"LineString","coordinates":[[-76.4703731,44.2352975],[-76.469727,44.2354548],[-76.4691893,44.2356142],[-76.4687284,44.2357664],[-76.4681725,44.2359767],[-76.466685,44.2365707]]}},{"type":"Feature","properties":{"name":"Rideau Street","highway":"tertiary","lanes":"2","maxspeed":"40","sidewalk":"right","surface":"asphalt"},"geometry":{"type":"LineString","coordinates":[[-76.4836749,44.2436819],[-76.4836524,44.243606],[-76.4834431,44.242901],[-76.4833916,44.2424583],[-76.4834537,44.2418363],[-76.4834761,44.2417611]]}},{"type":"Feature","properties":{"name":"Rideau Street","highway":"tertiary","lanes":"2","maxspeed":"40","sidewalk":"left","surface":"asphalt"},"geometry":{"type":"LineString","coordinates":[[-76.4834761,44.2417611],[-76.4834795,44.2416905],[-76.4834838,44.241601],[-76.483461,44.2413169],[-76.4833464,44.2406648],[-76.4832937,44.2404297],[-76.4832112,44.2400426],[-76.4831844,44.2399171],[-76.4830172,44.239041],[-76.4828863,44.238357],[-76.4828702,44.238273]]}},{"type":"Feature","properties":{"name":"Queen Street","highway":"primary","lanes":"1","lit":"yes","note":"Former provincial highway - downloaded in 1998 - sections in Kingston are now designated \"Kingston 2\"","oneway":"yes","ref":"2","sidewalk":"separate","surface":"asphalt"},"geometry":{"type":"LineString","coordinates":[[-76.4931993,44.234058],[-76.493097,44.2340558],[-76.492905,44.2340525],[-76.4927996,44.2340762]]}},{"type":"Feature","properties":{"name":"Queen Street","highway":"primary","lanes":"2","lit":"yes","note":"Former provincial highway - downloaded in 1998 - sections in Kingston are now designated \"Kingston 2\"","oneway":"yes","ref":"2","sidewalk":"separate","surface":"asphalt","turn:lanes":"left|right"},"geometry":{"type":"LineString","coordinates":[[-76.4927996,44.2340762],[-76.49292,44.2341215],[-76.4931184,44.2341381],[-76.4932179,44.2341476]]}},{"type":"Feature","properties":{"name":"Brock Street","cycleway:right":"shared_lane","highway":"secondary","lanes":"2","lcn":"yes","lit":"yes","oneway":"yes","sidewalk":"separate","surface":"asphalt"},"geometry":{"type":"LineString","coordinates":[[-76.487477,44.2314009],[-76.4883156,44.2315264],[-76.4885577,44.2315627],[-76.4891826,44.2316562],[-76.4892638,44.2316681],[-76.4893449,44.2316799],[-76.489677,44.2317302],[-76.4897439,44.2317403],[-76.4901575,44.2318029],[-76.4902861,44.2318224],[-76.4905354,44.2318601],[-76.4908309,44.2319048],[-76.4909372,44.2319209],[-76.4910257,44.2319343],[-76.4911087,44.2319468],[-76.4915515,44.2320138],[-76.4922106,44.2321136],[-76.4926668,44.2321822],[-76.4927448,44.2321935]]}},{"type":"Feature","properties":{"name":"Johnson Street","cycleway:right":"shared_lane","highway":"secondary","lanes":"2","lcn":"yes","lit":"yes","oneway":"yes","sidewalk":"separate","surface":"asphalt"},"geometry":{"type":"LineString","coordinates":[[-76.4876927,44.2305041],[-76.487612,44.2304944],[-76.4859964,44.2302624],[-76.485633,44.2302102],[-76.4854585,44.2301821],[-76.4852503,44.2301344],[-76.4851765,44.2300971]]}},{"type":"Feature","properties":{"name":"Yonge Street","alt_name":"Main Street","highway":"tertiary","lanes":"2","lit":"yes","surface":"asphalt"},"geometry":{"type":"LineString","coordinates":[[-76.5177256,44.2228206],[-76.51787,44.2242602],[-76.5180674,44.2262324],[-76.5181374,44.2269405],[-76.5181388,44.2269549],[-76.5181433,44.2270003]]}},{"type":"Feature","properties":{"name":"Yonge Street","alt_name":"Main Street","hgv":"no","highway":"tertiary","lanes":"2","surface":"asphalt"},"geometry":{"type":"LineString","coordinates":[[-76.5176507,44.2221676],[-76.5176588,44.222238],[-76.5176628,44.2222733],[-76.5177256,44.2228206]]}},{"type":"Feature","properties":{"name":"Highway 15","alt_name":"County Road 15","highway":"secondary","lanes":"3","lanes:backward":"2","lanes:forward":"1","lit":"yes","maxspeed":"60","ref":"15","short_name":"Hwy 15","sidewalk":"no","surface":"asphalt","turn:lanes:backward":"left|"},"geometry":{"type":"LineString","coordinates":[[-76.4605184,44.2549009],[-76.4605175,44.2549838],[-76.4605056,44.2556594],[-76.460502,44.2558668],[-76.4605002,44.2559677]]}},{"type":"Feature","properties":{"name":"Gore Road","highway":"tertiary","lanes":"2","maxspeed":"40","surface":"asphalt"},"geometry":{"type":"LineString","coordinates":[[-76.4526611,44.2598619],[-76.4494338,44.2601678],[-76.4492936,44.2601811]]}},{"type":"Feature","properties":{"name":"Craftsman Boulevard","access":"permissive","highway":"tertiary","lanes":"2","name:en":"Craftsman Boulevard","name:fr":"Boulevard Craftsman","surface":"asphalt"},"geometry":{"type":"LineString","coordinates":[[-76.454664,44.243157],[-76.4535163,44.2432468],[-76.4530406,44.2432795],[-76.4509726,44.2434355],[-76.4508678,44.2434439],[-76.4495964,44.2435459],[-76.4487953,44.2436101]]}},{"type":"Feature","properties":{"name":"Craftsman Boulevard","access":"permissive","highway":"tertiary","lanes":"2","name:en":"Craftsman Boulevard","name:fr":"Boulevard Craftsman","surface":"asphalt"},"geometry":{"type":"LineString","coordinates":[[-76.4568634,44.2430048],[-76.4566518,44.2430195],[-76.4560389,44.2430619],[-76.4559766,44.2430662],[-76.4555312,44.243097],[-76.454664,44.243157]]}},{"type":"Feature","properties":{"name":"Johnson Street","highway":"secondary","lanes":"2","lcn":"yes","lit":"yes","oneway":"yes","sidewalk":"separate","surface":"asphalt"},"geometry":{"type":"LineString","coordinates":[[-76.4825384,44.2288804],[-76.4824681,44.2288395],[-76.4822761,44.2287589],[-76.4815715,44.2284314],[-76.4814762,44.2283859]]}},{"type":"Feature","properties":{"name":"King Street East","highway":"tertiary","lanes":"2","lit":"yes","sidewalk":"separate","surface":"asphalt"},"geometry":{"type":"LineString","coordinates":[[-76.4825384,44.2288804],[-76.482489,44.2289321],[-76.4818963,44.2295886],[-76.4818485,44.2296593]]}},{"type":"Feature","properties":{"name":"King Street East","highway":"tertiary","lanes":"2","lit":"yes","parking:lane:both":"parallel","sidewalk":"separate","surface":"asphalt"},"geometry":{"type":"LineString","coordinates":[[-76.4825384,44.2288804],[-76.4825979,44.2288196],[-76.4827925,44.2286121],[-76.4831553,44.2282253],[-76.4831999,44.2281777],[-76.4832509,44.2281226],[-76.4833028,44.2280622],[-76.4837903,44.2275345],[-76.4839521,44.2273593],[-76.4846538,44.2265895],[-76.4853463,44.2258287],[-76.4858542,44.2252806],[-76.486214,44.2248923],[-76.4862603,44.2248521]]}},{"type":"Feature","properties":{"name":"Brock Street","highway":"secondary","lanes":"2","lcn":"yes","lit":"yes","oneway":"yes","sidewalk":"separate","surface":"paving_stones"},"geometry":{"type":"LineString","coordinates":[[-76.481265,44.2304558],[-76.4813584,44.2304701],[-76.4814134,44.2304785]]}},{"type":"Feature","properties":{"name":"Concession Street","highway":"secondary","lanes":"2","lit":"yes","sidewalk":"separate","surface":"asphalt"},"geometry":{"type":"LineString","coordinates":[[-76.5058966,44.2412422],[-76.5058212,44.2412438],[-76.5051499,44.2412506],[-76.5047762,44.2412625],[-76.5045888,44.2412689],[-76.5042859,44.2412792],[-76.5040091,44.241288],[-76.5038988,44.2412915]]}},{"type":"Feature","properties":{"name":"Concession Street","highway":"secondary","lanes":"2","lit":"yes","sidewalk":"separate","surface":"asphalt"},"geometry":{"type":"LineString","coordinates":[[-76.5023525,44.2413504],[-76.501914,44.2413589]]}},{"type":"Feature","properties":{"name":"Concession Street","highway":"secondary","lanes":"2","lit":"yes","sidewalk":"separate","surface":"asphalt"},"geometry":{"type":"LineString","coordinates":[[-76.501914,44.2413589],[-76.5011432,44.2413794]]}},{"type":"Feature","properties":{"name":"Division Street","cycleway":"lane","cycleway:left":"lane","cycleway:right":"lane","highway":"secondary","lanes":"2","lcn":"yes","lit":"yes","sidewalk":"separate","surface":"asphalt"},"geometry":{"type":"LineString","coordinates":[[-76.4958644,44.2479441],[-76.4958495,44.2478484],[-76.4955131,44.2456301],[-76.4953745,44.2446515],[-76.4952544,44.2438248],[-76.4952024,44.2434058],[-76.4950564,44.2423931]]}},{"type":"Feature","properties":{"name":"Concession Street","highway":"secondary","lanes":"2","lit":"yes","sidewalk":"separate","surface":"asphalt"},"geometry":{"type":"LineString","coordinates":[[-76.5038988,44.2412915],[-76.503553,44.2413061],[-76.5034629,44.2413072]]}},{"type":"Feature","properties":{"name":"Concession Street","highway":"secondary","lanes":"2","lit":"yes","sidewalk":"separate","surface":"asphalt"},"geometry":{"type":"LineString","coordinates":[[-76.5034629,44.2413072],[-76.5033656,44.2413061],[-76.5029805,44.2413331]]}},{"type":"Feature","properties":{"name":"Concession Street","highway":"secondary","lanes":"2","lit":"yes","sidewalk":"separate","smoothness":"good","surface":"asphalt"},"geometry":{"type":"LineString","coordinates":[[-76.4956886,44.2416486],[-76.4957833,44.2416438],[-76.4962949,44.2416182],[-76.4974417,44.2415561],[-76.4979779,44.241527],[-76.4980731,44.2415233],[-76.4981788,44.2415176],[-76.4985474,44.2414957],[-76.4986088,44.241493],[-76.4987604,44.2414857],[-76.4994247,44.2414531],[-76.4999955,44.2414251],[-76.5011432,44.2413794]]}},{"type":"Feature","properties":{"name":"John Counter Boulevard","cycleway:right":"lane","highway":"secondary","lanes":"4","lcn":"yes","lit":"yes","maxspeed":"60","note":"Widened from 2 to 4 lanes in 2013","oneway":"yes","sidewalk":"separate","surface":"asphalt"},"geometry":{"type":"LineString","coordinates":[[-76.5047703,44.2593851],[-76.5049124,44.2594529],[-76.5058096,44.2594463]]}},{"type":"Feature","properties":{"name":"Wellington Street","highway":"tertiary","lanes":"2","lit":"yes","maxspeed":"40","sidewalk":"separate","surface":"asphalt"},"geometry":{"type":"LineString","coordinates":[[-76.4824378,44.2315659],[-76.4824148,44.2316392],[-76.4823123,44.2319659],[-76.4822723,44.2320935],[-76.4821845,44.2323735],[-76.4821628,44.2324431],[-76.4821338,44.2325342],[-76.4819215,44.233216],[-76.4818911,44.2333103],[-76.481866,44.2333592]]}},{"type":"Feature","properties":{"name":"LaSalle Causeway","bridge":"yes","highway":"primary","lanes":"2","layer":"1","lit":"yes","maxspeed":"50","note":"Former provincial highway - downloaded in 1998 - sections in Kingston are now designated \"Kingston 2\"","ref":"2","sidewalk":"separate","surface":"asphalt"},"geometry":{"type":"LineString","coordinates":[[-76.4759687,44.2345679],[-76.4766804,44.2345101]]}},{"type":"Feature","properties":{"name":"John Counter Boulevard","cycleway:right":"lane","highway":"secondary","lanes":"4","lcn":"yes","lit":"yes","maxspeed":"60","note":"Widened from 2 to 4 lanes in 2013","oneway":"yes","sidewalk":"separate","surface":"asphalt"},"geometry":{"type":"LineString","coordinates":[[-76.5183015,44.2590519],[-76.5189852,44.2590627],[-76.5191441,44.259064]]}},{"type":"Feature","properties":{"name":"Montreal Street","cycleway":"lane","highway":"secondary","lanes":"2","lit":"yes","sidewalk":"separate","surface":"asphalt"},"geometry":{"type":"LineString","coordinates":[[-76.4852232,44.2378685],[-76.4852474,44.2379465],[-76.485502,44.2384224],[-76.485509,44.2384355],[-76.4855943,44.2385918],[-76.4857628,44.2389017],[-76.4858496,44.2390444],[-76.4863781,44.240005],[-76.4864026,44.2400494],[-76.4864306,44.2401045],[-76.4865096,44.2402173],[-76.4866889,44.2404214],[-76.4871649,44.2408215],[-76.4874575,44.2410813],[-76.4875647,44.2412196],[-76.4876238,44.2413426],[-76.4877001,44.2416382],[-76.4877963,44.242102],[-76.4878356,44.2424744],[-76.4878694,44.242758],[-76.4878797,44.2428445],[-76.4878699,44.2429005],[-76.4877418,44.2438317],[-76.4875927,44.2446553],[-76.4875424,44.2449558],[-76.4875219,44.2450786],[-76.4875046,44.2451819],[-76.4874845,44.2453153],[-76.4874746,44.2453808],[-76.4874423,44.2455946],[-76.487421,44.2457359],[-76.4874036,44.2458394],[-76.4873609,44.2460931],[-76.4872969,44.2464736],[-76.4872788,44.2465813],[-76.4872389,44.2468183],[-76.4872095,44.246993],[-76.4871877,44.2471223],[-76.4870957,44.2476694],[-76.4870858,44.247728],[-76.4870024,44.2479282],[-76.486878,44.2481394],[-76.4868209,44.2482348]]}},{"type":"Feature","properties":{"name":"Stephen Street","highway":"secondary","lanes":"2","lit":"yes","sidewalk":"separate","surface":"asphalt"},"geometry":{"type":"LineString","coordinates":[[-76.4878797,44.2428445],[-76.4879625,44.2428405],[-76.4881595,44.2428334],[-76.4883671,44.2428105],[-76.4900754,44.2425615],[-76.4901668,44.2425479],[-76.491715,44.242321],[-76.4921284,44.2422604],[-76.4946015,44.2419049],[-76.4948629,44.2418673],[-76.4949582,44.2418545]]}},{"type":"Feature","properties":{"name":"Brock Street","highway":"secondary","lanes":"2","lcn":"yes","lit":"yes","oneway":"yes","sidewalk":"separate","surface":"asphalt"},"geometry":{"type":"LineString","coordinates":[[-76.4814134,44.2304785],[-76.4816477,44.2305142],[-76.4820257,44.2305718],[-76.4826222,44.2306627],[-76.4827605,44.2306838]]}},{"type":"Feature","properties":{"name":"King Street East","highway":"tertiary","lanes":"2","lit":"yes","sidewalk":"separate","surface":"cobblestone"},"geometry":{"type":"LineString","coordinates":[[-76.4812075,44.2305571],[-76.4812272,44.2305199],[-76.481265,44.2304558]]}},{"type":"Feature","properties":{"name":"King Street East","highway":"tertiary","lanes":"2","lit":"yes","sidewalk":"separate","surface":"paving_stones"},"geometry":{"type":"LineString","coordinates":[[-76.4817806,44.2297597],[-76.4816405,44.229948],[-76.4813099,44.2303875],[-76.481265,44.2304558]]}},{"type":"Feature","properties":{"name":"Division Street","highway":"secondary","lanes":"2","lcn":"yes","lit":"yes","sidewalk":"separate","surface":"asphalt"},"geometry":{"type":"LineString","coordinates":[[-76.4949034,44.2416051],[-76.4948726,44.2414618],[-76.4948201,44.241217],[-76.4947385,44.2408368],[-76.4945374,44.2399418],[-76.4945234,44.2398769],[-76.4944139,44.2393701],[-76.4944017,44.2393134],[-76.4943883,44.2392421],[-76.494268,44.2386045],[-76.4941767,44.2381231],[-76.4941678,44.2380664],[-76.4941594,44.2380132],[-76.4941231,44.2377824],[-76.49401,44.2372629],[-76.4938535,44.236634],[-76.4937681,44.2363178],[-76.4936456,44.2358195],[-76.4935069,44.2352969],[-76.4934115,44.2348994],[-76.4933717,44.2347359]]}},{"type":"Feature","properties":{"name":"Division Street","highway":"secondary","lanes":"3","lcn":"yes","lit":"yes","oneway":"yes","sidewalk":"separate","surface":"asphalt"},"geometry":{"type":"LineString","coordinates":[[-76.4950564,44.2423931],[-76.4950773,44.2423157],[-76.4950513,44.2421667],[-76.49504,44.2421016],[-76.4950065,44.2419096],[-76.4949582,44.2418545]]}},{"type":"Feature","properties":{"name":"The Tragically Hip Way","highway":"tertiary","lanes":"2","lit":"yes","old_name":"Barrack Street","sidewalk":"separate","surface":"asphalt"},"geometry":{"type":"LineString","coordinates":[[-76.4804354,44.2331222],[-76.4803552,44.2331113],[-76.4790757,44.2328985],[-76.4790516,44.232896],[-76.4789131,44.232882]]}},{"type":"Feature","properties":{"name":"Sir John A. Macdonald Boulevard","expressway":"yes","highway":"secondary","lanes":"2","lit":"yes","maxspeed":"50","old_name":"Avenue Road","oneway":"yes","sidewalk":"separate","surface":"asphalt"},"geometry":{"type":"LineString","coordinates":[[-76.5148669,44.2341858],[-76.5148301,44.2339053]]}},{"type":"Feature","properties":{"name":"Sir John A. Macdonald Boulevard","expressway":"yes","highway":"secondary","lanes":"2","lit":"yes","maxspeed":"50","oneway":"yes","sidewalk":"separate","surface":"asphalt"},"geometry":{"type":"LineString","coordinates":[[-76.5128283,44.2250092],[-76.5129638,44.2261486],[-76.513104,44.2274144],[-76.5131781,44.2280787],[-76.5132413,44.2284292],[-76.5133416,44.2287212],[-76.5134694,44.2289824],[-76.5141118,44.2298913]]}},{"type":"Feature","properties":{"name":"Sir John A. Macdonald Boulevard","expressway":"yes","highway":"secondary","lanes":"4","lit":"yes","maxspeed":"50","oneway":"yes","sidewalk":"separate","surface":"asphalt","turn:lanes":"left|none|none|right"},"geometry":{"type":"LineString","coordinates":[[-76.5129946,44.2250211],[-76.5128786,44.2240485]]}},{"type":"Feature","properties":{"name":"Sir John A. Macdonald Boulevard","expressway":"yes","highway":"secondary","lanes":"2","lit":"yes","maxspeed":"50","oneway":"yes","sidewalk":"separate","surface":"asphalt"},"geometry":{"type":"LineString","coordinates":[[-76.5126775,44.2236121],[-76.512686,44.2236906]]}},{"type":"Feature","properties":{"name":"Sir John A. Macdonald Boulevard","expressway":"yes","highway":"secondary","lanes":"3","lit":"yes","maxspeed":"50","oneway":"yes","sidewalk":"separate","surface":"asphalt","turn:lanes":"none|none|merge_to_left"},"geometry":{"type":"LineString","coordinates":[[-76.5127329,44.2241137],[-76.5128283,44.2250092]]}},{"type":"Feature","properties":{"name":"Sir John A. Macdonald Boulevard","expressway":"yes","highway":"secondary","lanes":"3","lit":"yes","maxspeed":"50","oneway":"yes","sidewalk":"separate","surface":"asphalt","turn:lanes":"left|none|none"},"geometry":{"type":"LineString","coordinates":[[-76.5128786,44.2240485],[-76.5128441,44.2237222],[-76.5128376,44.2236479]]}},{"type":"Feature","properties":{"name":"Sir John A. Macdonald Boulevard","expressway":"yes","highway":"secondary","lanes":"3","lit":"yes","maxspeed":"50","oneway":"yes","sidewalk":"separate","surface":"asphalt","turn:lanes":"left|none|none"},"geometry":{"type":"LineString","coordinates":[[-76.512593,44.2226106],[-76.5126323,44.223033],[-76.5126721,44.2235677],[-76.5126775,44.2236121]]}},{"type":"Feature","properties":{"name":"Princess Street","highway":"primary","lanes":"3","lit":"yes","maxspeed":"50","note":"Former provincial highway - downloaded in 1998 - sections in Kingston are now designated \"Kingston 2\"","oneway":"yes","ref":"2","sidewalk":"separate","surface":"asphalt","turn:lanes":"left|none|none","wikipedia":"en:Princess Street (Kingston, Ontario)"},"geometry":{"type":"LineString","coordinates":[[-76.5199768,44.244963],[-76.519286,44.2446381],[-76.5191922,44.2445941]]}},{"type":"Feature","properties":{"name":"Princess Street","highway":"primary","lanes":"2","lit":"yes","maxspeed":"50","note":"Former provincial highway - downloaded in 1998 - sections in Kingston are now designated \"Kingston 2\"","oneway":"yes","ref":"2","sidewalk":"separate","surface":"asphalt","wikipedia":"en:Princess Street (Kingston, Ontario)"},"geometry":{"type":"LineString","coordinates":[[-76.5191922,44.2445941],[-76.5190449,44.2445278]]}},{"type":"Feature","properties":{"name":"Sir John A. Macdonald Boulevard","expressway":"yes","highway":"secondary","lanes":"2","lit":"yes","maxspeed":"50","old_name":"Avenue Road","oneway":"yes","sidewalk":"separate","surface":"asphalt"},"geometry":{"type":"LineString","coordinates":[[-76.5191219,44.2446695],[-76.5191922,44.2445941]]}},{"type":"Feature","properties":{"name":"Sir John A. Macdonald Boulevard","expressway":"yes","highway":"secondary","lanes":"3","lit":"yes","maxspeed":"50","oneway":"yes","sidewalk":"no","surface":"asphalt","turn:lanes":"left|none|none"},"geometry":{"type":"LineString","coordinates":[[-76.5185185,44.2453163],[-76.5187942,44.2449984]]}},{"type":"Feature","properties":{"name":"Sir John A. Macdonald Boulevard","expressway":"yes","highway":"secondary","lanes":"4","lit":"yes","maxspeed":"50","old_name":"Avenue Road","oneway":"yes","sidewalk":"separate","surface":"asphalt","turn:lanes":"left|none|none|right"},"geometry":{"type":"LineString","coordinates":[[-76.5187942,44.2449984],[-76.5190509,44.2447408],[-76.5191219,44.2446695]]}},{"type":"Feature","properties":{"name":"King Street West","highway":"secondary","lanes":"2","lit":"yes","maxspeed":"40","sidewalk":"separate","surface":"asphalt"},"geometry":{"type":"LineString","coordinates":[[-76.5144033,44.2210059],[-76.5146362,44.2209872],[-76.5149851,44.2209637],[-76.5154091,44.2209351]]}},{"type":"Feature","properties":{"name":"Johnson Street","cycleway:right":"shared_lane","highway":"secondary","lanes":"2","lcn":"yes","lit":"yes","oneway":"yes","sidewalk":"separate","surface":"asphalt"},"geometry":{"type":"LineString","coordinates":[[-76.4929655,44.2312935],[-76.4928857,44.2312817],[-76.492426,44.2312135],[-76.4917266,44.2311099],[-76.4914801,44.2310734],[-76.4912275,44.2310359],[-76.4911479,44.2310241],[-76.4910573,44.2310112],[-76.4895865,44.2307869],[-76.4895008,44.2307734],[-76.4894253,44.2307616],[-76.4888906,44.2306812],[-76.4878005,44.2305173],[-76.4876927,44.2305041]]}},{"type":"Feature","properties":{"name":"Montreal Street","cycleway":"lane","highway":"secondary","lanes":"2","lit":"yes","sidewalk":"separate","surface":"asphalt"},"geometry":{"type":"LineString","coordinates":[[-76.4851301,44.2364732],[-76.4851529,44.237209],[-76.4851752,44.2374624],[-76.4852232,44.2378685]]}},{"type":"Feature","properties":{"name":"Rideau Street","highway":"tertiary","lanes":"2","surface":"asphalt"},"geometry":{"type":"LineString","coordinates":[[-76.482646,44.2370529],[-76.4826244,44.2368983],[-76.4826105,44.2365749],[-76.4825786,44.2358332],[-76.4825577,44.2351951],[-76.4825509,44.2349899],[-76.4825456,44.2348269],[-76.4825412,44.2346933],[-76.4825212,44.2337649],[-76.4825286,44.2336492],[-76.4825374,44.2335702],[-76.4825395,44.233551],[-76.4825603,44.2334729]]}},{"type":"Feature","properties":{"name":"Craftsman Boulevard","access":"permissive","highway":"tertiary","lanes":"2","name:en":"Craftsman Boulevard","name:fr":"Boulevard Craftsman","surface":"asphalt"},"geometry":{"type":"LineString","coordinates":[[-76.4594543,44.2443155],[-76.4594307,44.2441447],[-76.4594004,44.2439806],[-76.4593585,44.2438359],[-76.4592844,44.2436912],[-76.4591666,44.2435218],[-76.4589827,44.2433444],[-76.4587587,44.243194],[-76.4585564,44.2431002],[-76.4583178,44.2430187],[-76.4580377,44.2429634],[-76.457785,44.242946],[-76.4576164,44.242951],[-76.4573468,44.2429722],[-76.4570176,44.2429944],[-76.4568634,44.2430048]]}},{"type":"Feature","properties":{"name":"Princess Street","cycleway":"lane","highway":"primary","lanes":"2","lit":"yes","maxspeed":"50","note":"Former provincial highway - downloaded in 1998 - sections in Kingston are now designated \"Kingston 2\"","ref":"2","sidewalk":"separate","surface":"asphalt","wikipedia":"en:Princess Street (Kingston, Ontario)"},"geometry":{"type":"LineString","coordinates":[[-76.5057263,44.2386814],[-76.5058455,44.2387309],[-76.506253,44.2389004],[-76.506769,44.2391149],[-76.5068968,44.2391681],[-76.5070302,44.2392236],[-76.507388,44.2393713],[-76.5077939,44.239542],[-76.508248,44.2397374],[-76.5083642,44.2397874],[-76.5085585,44.2398722],[-76.5087117,44.2399391],[-76.508745,44.2399524],[-76.5095166,44.2402715],[-76.5095489,44.2402845]]}},{"type":"Feature","properties":{"name":"Highway 15","alt_name":"County Road 15","highway":"secondary","lanes":"2","maxspeed":"60","ref":"15","short_name":"Hwy 15","surface":"asphalt"},"geometry":{"type":"LineString","coordinates":[[-76.459203,44.2415778],[-76.4594649,44.242243],[-76.4597396,44.2427964]]}},{"type":"Feature","properties":{"name":"Highway 15","alt_name":"County Road 15","highway":"secondary","lanes":"4","lanes:backward":"2","lanes:forward":"2","maxspeed":"60","ref":"15","short_name":"Hwy 15","surface":"asphalt","turn:lanes:backward":"left|right","turn:lanes:forward":"left|none"},"geometry":{"type":"LineString","coordinates":[[-76.4586748,44.240374],[-76.459203,44.2415778]]}},{"type":"Feature","properties":{"name":"Johnson Street","highway":"secondary","lcn":"yes","oneway":"yes","surface":"asphalt"},"geometry":{"type":"LineString","coordinates":[[-76.5143972,44.2310262],[-76.5145491,44.231029]]}},{"type":"Feature","properties":{"name":"Johnson Street","highway":"secondary","lanes":"3","lcn":"yes","lit":"yes","oneway":"yes","sidewalk":"separate","surface":"asphalt","turn:lanes":"left||through;right"},"geometry":{"type":"LineString","coordinates":[[-76.5137809,44.2310725],[-76.5139474,44.2310496],[-76.5142576,44.2310331],[-76.5143972,44.2310262]]}},{"type":"Feature","properties":{"name":"Ontario Street","cycleway":"shoulder","highway":"primary","lanes":"1","lit":"yes","maxspeed":"50","maxspeed:advisory":"30","note":"Former provincial highway - downloaded in 1998 - sections in Kingston are now designated \"Kingston 2\"","oneway":"yes","ref":"2","sidewalk":"separate","surface":"asphalt"},"geometry":{"type":"LineString","coordinates":[[-76.4780841,44.2342498],[-76.4782887,44.2342118],[-76.4783698,44.2341862],[-76.4784747,44.2341415]]}},{"type":"Feature","properties":{"name":"Princess Street","highway":"primary","lanes":"2","lit":"yes","maxspeed":"50","note":"Former provincial highway - downloaded in 1998 - sections in Kingston are now designated \"Kingston 2\"","oneway":"yes","ref":"2","sidewalk":"separate","surface":"asphalt","wikipedia":"en:Princess Street (Kingston, Ontario)"},"geometry":{"type":"LineString","coordinates":[[-76.5112954,44.24115],[-76.5115722,44.2412814]]}},{"type":"Feature","properties":{"name":"Highway 15","alt_name":"County Road 15","highway":"secondary","lanes":"2","maxspeed":"60","maxspeed:advisory":"50","ref":"15","short_name":"Hwy 15","surface":"asphalt"},"geometry":{"type":"LineString","coordinates":[[-76.4597396,44.2427964],[-76.4598838,44.243084],[-76.4600657,44.2432883],[-76.4603142,44.243472],[-76.4605916,44.2436236],[-76.4610871,44.2437802],[-76.4616273,44.24401],[-76.4618941,44.2441686],[-76.4620579,44.2443002],[-76.462185,44.2444239],[-76.4622767,44.244645],[-76.4624072,44.2449471],[-76.4624503,44.2453218]]}},{"type":"Feature","properties":{"name":"Highway 15","alt_name":"County Road 15","highway":"secondary","lanes":"2","lit":"yes","maxspeed":"60","ref":"15","short_name":"Hwy 15","sidewalk:left":"separate","sidewalk:right":"no","surface":"asphalt"},"geometry":{"type":"LineString","coordinates":[[-76.4624503,44.2453218],[-76.4622963,44.2458168],[-76.4620665,44.2463343]]}},{"type":"Feature","properties":{"name":"Princess Street","cycleway":"lane","highway":"primary","lanes":"2","lit":"yes","maxspeed":"50","note":"Former provincial highway - downloaded in 1998 - sections in Kingston are now designated \"Kingston 2\"","parking:lane:both:parallel":"on_street","ref":"2","sidewalk":"separate","surface":"asphalt","wikipedia":"en:Princess Street (Kingston, Ontario)"},"geometry":{"type":"LineString","coordinates":[[-76.4981104,44.235514],[-76.4981514,44.2355308],[-76.4984069,44.2356357],[-76.4990681,44.2359072],[-76.4993807,44.2360343],[-76.4998014,44.2362185],[-76.4999226,44.2362676],[-76.500552,44.2365226],[-76.5006468,44.2365598],[-76.5007514,44.236604],[-76.501116,44.2367525],[-76.5015142,44.2369147],[-76.501953,44.2370934],[-76.5030088,44.2375429],[-76.5031112,44.2375865]]}},{"type":"Feature","properties":{"name":"Princess Street","cycleway":"lane","highway":"primary","lanes":"3","lanes:backward":"1","lanes:forward":"2","lit":"yes","maxspeed":"50","note":"Former provincial highway - downloaded in 1998 - sections in Kingston are now designated \"Kingston 2\"","ref":"2","sidewalk":"separate","surface":"asphalt","turn:lanes:forward":"left|none","wikipedia":"en:Princess Street (Kingston, Ontario)"},"geometry":{"type":"LineString","coordinates":[[-76.4981104,44.235514],[-76.4976076,44.2353031],[-76.4974849,44.2352463]]}},{"type":"Feature","properties":{"name":"Princess Street","cycleway":"lane","highway":"primary","lanes":"3","lanes:backward":"1","lanes:forward":"2","lit":"yes","maxspeed":"50","note":"Former provincial highway - downloaded in 1998 - sections in Kingston are now designated \"Kingston 2\"","ref":"2","sidewalk":"separate","surface":"asphalt","turn:lanes:forward":"left|none","wikipedia":"en:Princess Street (Kingston, Ontario)"},"geometry":{"type":"LineString","coordinates":[[-76.4967929,44.234982],[-76.4973284,44.2351887],[-76.4974849,44.2352463]]}},{"type":"Feature","properties":{"name":"Artisan Road","attribution":"GeoBase","geobase:acquisitionTechnique":"GPS","highway":"tertiary","lanes":"3","oneway":"yes","source":"Geobase_Import_2009","surface":"asphalt","turn:lanes":"left|none|right"},"geometry":{"type":"LineString","coordinates":[[-76.4555322,44.2404998],[-76.4555177,44.2403636],[-76.4554877,44.2401193],[-76.4554534,44.2400177]]}},{"type":"Feature","properties":{"name":"King Street West","highway":"secondary","lanes":"2","lit":"yes","maxspeed":"50","sidewalk":"separate","surface":"asphalt"},"geometry":{"type":"LineString","coordinates":[[-76.5136855,44.2210635],[-76.5144033,44.2210059]]}},{"type":"Feature","properties":{"name":"Highway 15","alt_name":"County Road 15","cycleway":"lane","highway":"secondary","lanes":"2","maxspeed":"60","ref":"15","short_name":"Hwy 15","sidewalk:left":"no","sidewalk:right":"separate","surface":"asphalt"},"geometry":{"type":"LineString","coordinates":[[-76.4609818,44.2490871],[-76.4608492,44.2499342],[-76.4608353,44.2500227]]}},{"type":"Feature","properties":{"name":"Highway 15","alt_name":"County Road 15","highway":"secondary","lanes":"2","maxspeed":"60","ref":"15","short_name":"Hwy 15","sidewalk:left":"no","sidewalk:right":"separate","sidewalk:right:surface":"concrete","surface":"asphalt"},"geometry":{"type":"LineString","coordinates":[[-76.4615487,44.2473915],[-76.4612295,44.2480451],[-76.461015,44.2488751],[-76.4609818,44.2490871]]}},{"type":"Feature","properties":{"name":"Bath Road","highway":"primary","lanes":"2","lit":"yes","maxspeed":"50","note":"Former provincial highway - downloaded in 1998","oneway":"yes","ref":"33","sidewalk":"separate","surface":"asphalt"},"geometry":{"type":"LineString","coordinates":[[-76.5169709,44.2405406],[-76.5167934,44.2405531],[-76.516772,44.2405546],[-76.5154556,44.2406446]]}},{"type":"Feature","properties":{"name":"Montreal Street","cycleway":"lane","highway":"secondary","lanes":"2","lit":"yes","sidewalk":"separate","surface":"asphalt"},"geometry":{"type":"LineString","coordinates":[[-76.4866116,44.2485926],[-76.4866032,44.2486081],[-76.4865339,44.2487354],[-76.4863951,44.2489901],[-76.4863811,44.2490159],[-76.4862587,44.2492407],[-76.4860196,44.2496798],[-76.4857091,44.2502628],[-76.4855199,44.2514411],[-76.4854343,44.2518792],[-76.4853768,44.2521732],[-76.48536,44.2522592],[-76.4852457,44.2525224],[-76.4849326,44.2529423],[-76.4848423,44.2530634]]}},{"type":"Feature","properties":{"name":"University Avenue","highway":"tertiary","lanes":"2","lit":"yes","maxspeed":"40","old_name":"Gordon Street","sidewalk":"separate","surface":"asphalt"},"geometry":{"type":"LineString","coordinates":[[-76.4955722,44.2279388],[-76.4955721,44.2280125],[-76.4955789,44.2284935],[-76.4955849,44.2289177]]}},{"type":"Feature","properties":{"name":"Leroy Grant Drive","highway":"tertiary","lanes":"1","oneway":"yes","surface":"asphalt"},"geometry":{"type":"LineString","coordinates":[[-76.5068723,44.2416952],[-76.5069077,44.2415734],[-76.5069197,44.2413267],[-76.50691,44.2413018],[-76.5068851,44.2412379]]}},{"type":"Feature","properties":{"name":"Highway 15","alt_name":"County Road 15","highway":"secondary","lanes":"3","lanes:backward":"1","lanes:forward":"2","lit":"yes","maxspeed":"60","ref":"15","short_name":"Hwy 15","sidewalk":"no","surface":"asphalt","turn:lanes:forward":"left|"},"geometry":{"type":"LineString","coordinates":[[-76.460454,44.257481],[-76.4604188,44.258318],[-76.4603981,44.258688],[-76.4603946,44.2587501]]}},{"type":"Feature","properties":{"name":"Highway 15","alt_name":"County Road 15","highway":"secondary","lanes":"3","lit":"yes","maxspeed":"60","oneway":"yes","ref":"15","short_name":"Hwy 15","sidewalk":"no","surface":"asphalt","turn:lanes":"left||right"},"geometry":{"type":"LineString","coordinates":[[-76.4603946,44.2587501],[-76.4603438,44.2587931],[-76.4603319,44.2589497],[-76.4603296,44.2589793],[-76.4603173,44.2591139]]}},{"type":"Feature","properties":{"name":"Highway 15","alt_name":"County Road 15","highway":"secondary","lanes":"2","lit":"yes","maxspeed":"60","ref":"15","short_name":"Hwy 15","sidewalk":"no","surface":"asphalt"},"geometry":{"type":"LineString","coordinates":[[-76.4605002,44.2559677],[-76.4604933,44.2561924],[-76.460454,44.257481]]}},{"type":"Feature","properties":{"name":"Sir John A. Macdonald Boulevard","expressway":"yes","highway":"secondary","lanes":"2","lit":"yes","maxspeed":"50","old_name":"Avenue Road","oneway":"yes","sidewalk":"separate","surface":"asphalt"},"geometry":{"type":"LineString","coordinates":[[-76.5143847,44.2309372],[-76.5143972,44.2310262],[-76.514409,44.2311461],[-76.5145505,44.2326373],[-76.5146746,44.2337604],[-76.5146833,44.2338593],[-76.5147041,44.2340967]]}},{"type":"Feature","properties":{"name":"Sir John A. Macdonald Boulevard","expressway":"yes","highway":"secondary","lanes":"2","lit":"yes","maxspeed":"50","old_name":"Avenue Road","oneway":"yes","sidewalk":"separate","surface":"asphalt"},"geometry":{"type":"LineString","coordinates":[[-76.5145491,44.231029],[-76.514536,44.2309284]]}},{"type":"Feature","properties":{"name":"Union Street","cycleway":"lane","highway":"tertiary","lanes":"2","lcn":"yes","lit":"yes","maxspeed":"40","sidewalk":"separate","surface":"asphalt"},"geometry":{"type":"LineString","coordinates":[[-76.498942,44.2274482],[-76.4982186,44.2275877],[-76.4979234,44.2276407],[-76.4977392,44.2276737],[-76.4968864,44.2278266],[-76.4967324,44.2278548],[-76.4966839,44.2278628],[-76.496433,44.2279041],[-76.4961506,44.2279338]]}},{"type":"Feature","properties":{"name":"Sir John A. Macdonald Boulevard","expressway":"yes","highway":"secondary","lanes":"3","lit":"yes","maxspeed":"50","old_name":"Avenue Road","oneway":"yes","sidewalk":"no","surface":"asphalt","turn:lanes":"left||"},"geometry":{"type":"LineString","coordinates":[[-76.5187009,44.2449171],[-76.5184099,44.2452566]]}},{"type":"Feature","properties":{"name":"Sir John A. Macdonald Boulevard","expressway":"yes","highway":"secondary","lanes":"2","lit":"yes","maxspeed":"50","old_name":"Avenue Road","oneway":"yes","sidewalk":"separate","surface":"asphalt"},"geometry":{"type":"LineString","coordinates":[[-76.518971,44.2446115],[-76.5189126,44.2446775],[-76.5187009,44.2449171]]}},{"type":"Feature","properties":{"name":"Sir John A. Macdonald Boulevard","expressway":"yes","highway":"secondary","lanes":"3","lit":"yes","maxspeed":"60","oneway":"yes","sidewalk":"no","surface":"asphalt","turn:lanes":"left||"},"geometry":{"type":"LineString","coordinates":[[-76.5184906,44.2523002],[-76.5186719,44.2530745]]}},{"type":"Feature","properties":{"name":"Sir John A. Macdonald Boulevard","expressway":"yes","highway":"secondary","lanes":"2","lit":"yes","maxspeed":"60","oneway":"yes","sidewalk":"no","surface":"asphalt"},"geometry":{"type":"LineString","coordinates":[[-76.5181494,44.249299],[-76.5182251,44.2505663],[-76.5182593,44.2509136],[-76.5182935,44.2512608],[-76.5183431,44.2516114],[-76.5184182,44.251989],[-76.5184906,44.2523002]]}},{"type":"Feature","properties":{"name":"Sir John A. Macdonald Boulevard","expressway":"yes","highway":"secondary","lanes":"3","lit":"yes","maxspeed":"60","oneway":"yes","sidewalk":"no","surface":"asphalt","turn:lanes":"||right"},"geometry":{"type":"LineString","coordinates":[[-76.5180226,44.2472914],[-76.5180436,44.2477481]]}},{"type":"Feature","properties":{"name":"Sir John A. Macdonald Boulevard","expressway":"yes","highway":"secondary","lanes":"2","lit":"yes","maxspeed":"60","oneway":"yes","sidewalk":"no","surface":"asphalt"},"geometry":{"type":"LineString","coordinates":[[-76.5182326,44.2483199],[-76.5181628,44.2472967]]}},{"type":"Feature","properties":{"name":"Sir John A. Macdonald Boulevard","expressway":"yes","highway":"secondary","lanes":"3","lit":"yes","maxspeed":"60","oneway":"yes","sidewalk":"no","surface":"asphalt","turn:lanes":"left||"},"geometry":{"type":"LineString","coordinates":[[-76.5183381,44.2501382],[-76.5182326,44.2483199]]}},{"type":"Feature","properties":{"name":"Sir John A. Macdonald Boulevard","expressway":"yes","highway":"secondary","lanes":"3","lit":"yes","maxspeed":"60","oneway":"yes","sidewalk":"no","surface":"asphalt"},"geometry":{"type":"LineString","coordinates":[[-76.5181267,44.2490252],[-76.5181494,44.249299]]}},{"type":"Feature","properties":{"name":"Sir John A. Macdonald Boulevard","expressway":"yes","highway":"secondary","lanes":"4","lit":"yes","maxspeed":"60","oneway":"yes","sidewalk":"no","surface":"asphalt","turn:lanes":"left|||right"},"geometry":{"type":"LineString","coordinates":[[-76.5193497,44.2602603],[-76.5192747,44.2591535],[-76.5192687,44.2590645]]}},{"type":"Feature","properties":{"name":"Sir John A. Macdonald Boulevard","expressway":"yes","highway":"secondary","lanes":"4","lit":"yes","maxspeed":"60","oneway":"yes","sidewalk":"separate","surface":"asphalt","turn:lanes":"left|||right"},"geometry":{"type":"LineString","coordinates":[[-76.5190612,44.2579315],[-76.5190801,44.2581897],[-76.5191268,44.2588278],[-76.5191343,44.2589301]]}},{"type":"Feature","properties":{"name":"Sir John A. Macdonald Boulevard","expressway":"yes","highway":"secondary","lanes":"2","lit":"yes","maxspeed":"60","oneway":"yes","sidewalk":"no","surface":"asphalt"},"geometry":{"type":"LineString","coordinates":[[-76.5186719,44.2530745],[-76.5187696,44.2536325],[-76.5188286,44.2541157],[-76.5189533,44.2561929],[-76.5190612,44.2579315]]}},{"type":"Feature","properties":{"name":"Princess Street","highway":"primary","lanes":"3","lit":"yes","maxspeed":"50","note":"Former provincial highway - downloaded in 1998 - sections in Kingston are now designated \"Kingston 2\"","oneway":"yes","ref":"2","sidewalk":"separate","surface":"asphalt","turn:lanes":"left||","wikipedia":"en:Princess Street (Kingston, Ontario)"},"geometry":{"type":"LineString","coordinates":[[-76.5170419,44.2435831],[-76.516818,44.2434802],[-76.5167359,44.2434406]]}},{"type":"Feature","properties":{"name":"Princess Street","highway":"primary","lanes":"4","lit":"yes","maxspeed":"50","note":"Former provincial highway - downloaded in 1998 - sections in Kingston are now designated \"Kingston 2\"","oneway":"yes","ref":"2","sidewalk":"separate","surface":"asphalt","turn:lanes":"left|||right","wikipedia":"en:Princess Street (Kingston, Ontario)"},"geometry":{"type":"LineString","coordinates":[[-76.51824,44.2441386],[-76.5178898,44.2439654],[-76.5170419,44.2435831]]}},{"type":"Feature","properties":{"name":"Princess Street","highway":"primary","lanes":"4","lit":"yes","maxspeed":"50","note":"Former provincial highway - downloaded in 1998 - sections in Kingston are now designated \"Kingston 2\"","oneway":"yes","ref":"2","sidewalk":"separate","surface":"asphalt","turn:lanes":"left|||right","wikipedia":"en:Princess Street (Kingston, Ontario)"},"geometry":{"type":"LineString","coordinates":[[-76.5156087,44.2430755],[-76.5158032,44.2431506],[-76.5164895,44.2434646],[-76.5165513,44.2434929]]}},{"type":"Feature","properties":{"name":"Bath Road","highway":"primary","lanes":"4","lit":"yes","maxspeed":"50","note":"Former provincial highway - downloaded in 1998","oneway":"yes","ref":"33","sidewalk":"separate","surface":"asphalt","turn:lanes":"left|||right"},"geometry":{"type":"LineString","coordinates":[[-76.5134221,44.2409405],[-76.5143413,44.2408687],[-76.5145124,44.2408544]]}},{"type":"Feature","properties":{"name":"Bath Road","highway":"primary","lanes":"2","lit":"yes","maxspeed":"50","note":"Former provincial highway - downloaded in 1998","oneway":"yes","ref":"33","restriction":"no_left_turn","sidewalk":"separate","surface":"asphalt"},"geometry":{"type":"LineString","coordinates":[[-76.5115722,44.2412814],[-76.5117532,44.2412132],[-76.5118685,44.2411686],[-76.5121832,44.2410926]]}},{"type":"Feature","properties":{"name":"Montreal Street","cycleway":"lane","highway":"secondary","lanes":"2","lit":"yes","sidewalk":"separate","surface":"asphalt"},"geometry":{"type":"LineString","coordinates":[[-76.4829028,44.2572508],[-76.4824326,44.2582564]]}},{"type":"Feature","properties":{"name":"Montreal Street","cycleway":"lane","highway":"secondary","lanes":"2","lit":"yes","sidewalk":"separate","surface":"asphalt"},"geometry":{"type":"LineString","coordinates":[[-76.4830002,44.2569589],[-76.4829365,44.2571499],[-76.4829028,44.2572508]]}},{"type":"Feature","properties":{"name":"John Counter Boulevard","highway":"secondary","lanes":"2","lit":"yes","maxspeed":"50","sidewalk":"separate","surface":"asphalt"},"geometry":{"type":"LineString","coordinates":[[-76.4829028,44.2572508],[-76.4830418,44.2572463],[-76.4833107,44.2572254]]}},{"type":"Feature","properties":{"name":"Highway 2","highway":"primary","lanes":"2","maxspeed":"60","note":"Former provincial highway - downloaded in 1998 - sections in Kingston are now designated \"Kingston 2\"","old_name":"Highway 2","ref":"2","sidewalk:both":"separate","surface":"asphalt"},"geometry":{"type":"LineString","coordinates":[[-76.4665588,44.236623],[-76.4662032,44.2367737],[-76.4660503,44.2368308],[-76.4659547,44.2368666]]}},{"type":"Feature","properties":{"name":"Princess Street","cycleway":"lane","highway":"primary","lanes":"2","lit":"yes","maxspeed":"50","note":"Former provincial highway - downloaded in 1998 - sections in Kingston are now designated \"Kingston 2\"","ref":"2","sidewalk":"separate","surface":"asphalt","wikipedia":"en:Princess Street (Kingston, Ontario)"},"geometry":{"type":"LineString","coordinates":[[-76.4930485,44.2334502],[-76.4932551,44.2335502],[-76.4933274,44.2335796],[-76.4936577,44.233714]]}},{"type":"Feature","properties":{"name":"Division Street","cycleway:both":"shared_lane","highway":"primary","lanes":"2","lcn":"yes","lit":"yes","ref":"2","sidewalk":"separate","surface":"asphalt"},"geometry":{"type":"LineString","coordinates":[[-76.4931568,44.2338526],[-76.4931444,44.2337927],[-76.4930854,44.2335819],[-76.4930485,44.2334502]]}},{"type":"Feature","properties":{"name":"Division Street","highway":"secondary","lanes":"2","lcn":"yes","lit":"yes","sidewalk":"separate","surface":"asphalt"},"geometry":{"type":"LineString","coordinates":[[-76.4949582,44.2418545],[-76.4949436,44.2417845],[-76.4949173,44.2416672],[-76.4949034,44.2416051]]}},{"type":"Feature","properties":{"name":"John Counter Boulevard","cycleway:right":"lane","highway":"secondary","lanes":"2","lcn":"yes","lit":"yes","maxspeed":"60","oneway":"yes","sidewalk":"separate","surface":"asphalt"},"geometry":{"type":"LineString","coordinates":[[-76.5192687,44.2590645],[-76.5194236,44.2590599],[-76.5197085,44.2590513],[-76.5208009,44.2590359],[-76.520961,44.258983]]}},{"type":"Feature","properties":{"name":"John Counter Boulevard","cycleway:right":"lane","highway":"secondary","lanes":"2","lcn":"yes","lit":"yes","maxspeed":"60","oneway":"yes","sidewalk":"separate","surface":"asphalt"},"geometry":{"type":"LineString","coordinates":[[-76.5191441,44.259064],[-76.5192687,44.2590645]]}},{"type":"Feature","properties":{"name":"Sir John A. Macdonald Boulevard","expressway":"yes","highway":"secondary","lanes":"2","lit":"yes","maxspeed":"60","oneway":"yes","sidewalk":"separate","surface":"asphalt"},"geometry":{"type":"LineString","coordinates":[[-76.5192653,44.2589289],[-76.5192605,44.2588291],[-76.5192501,44.2586157]]}},{"type":"Feature","properties":{"name":"Sir John A. Macdonald Boulevard","expressway":"yes","highway":"secondary","lanes":"2","lit":"yes","maxspeed":"60","oneway":"yes","sidewalk":"no","surface":"asphalt"},"geometry":{"type":"LineString","coordinates":[[-76.5191435,44.2594253],[-76.5192654,44.261562]]}},{"type":"Feature","properties":{"name":"Sir John A. Macdonald Boulevard","expressway":"yes","highway":"secondary","lanes":"2","lit":"yes","maxspeed":"50","old_name":"Avenue Road","oneway":"yes","sidewalk":"separate","surface":"asphalt"},"geometry":{"type":"LineString","coordinates":[[-76.5190449,44.2445278],[-76.518971,44.2446115]]}},{"type":"Feature","properties":{"name":"Sir John A. Macdonald Boulevard","expressway":"yes","highway":"secondary","lanes":"4","lit":"yes","maxspeed":"50","old_name":"Avenue Road","oneway":"yes","sidewalk":"separate","surface":"asphalt","turn:lanes":"left|left|none|none"},"geometry":{"type":"LineString","coordinates":[[-76.5192934,44.2441374],[-76.5192035,44.2442951],[-76.519088,44.2444646],[-76.5190449,44.2445278]]}},{"type":"Feature","properties":{"name":"Sir John A. Macdonald Boulevard","expressway":"yes","highway":"secondary","lanes":"2","lit":"yes","maxspeed":"50","old_name":"Avenue Road","oneway":"yes","sidewalk":"separate","surface":"asphalt"},"geometry":{"type":"LineString","coordinates":[[-76.5194845,44.2437635],[-76.5194578,44.2432862],[-76.5194535,44.2432103],[-76.5193752,44.2420779],[-76.5193675,44.241986],[-76.5193301,44.2412004],[-76.5192933,44.2405448],[-76.519288,44.2404501]]}},{"type":"Feature","properties":{"name":"Princess Street","highway":"primary","lanes":"2","lit":"yes","maxspeed":"50","note":"Former provincial highway - downloaded in 1998 - sections in Kingston are now designated \"Kingston 2\"","oneway":"yes","ref":"2","sidewalk":"separate","surface":"asphalt","wikipedia":"en:Princess Street (Kingston, Ontario)"},"geometry":{"type":"LineString","coordinates":[[-76.5185757,44.2443036],[-76.51824,44.2441386]]}},{"type":"Feature","properties":{"name":"Princess Street","highway":"primary","lanes":"2","lit":"yes","maxspeed":"50","note":"Former provincial highway - downloaded in 1998 - sections in Kingston are now designated \"Kingston 2\"","oneway":"yes","ref":"2","sidewalk":"separate","surface":"asphalt","wikipedia":"en:Princess Street (Kingston, Ontario)"},"geometry":{"type":"LineString","coordinates":[[-76.5190449,44.2445278],[-76.5189731,44.2444959],[-76.5185757,44.2443036]]}},{"type":"Feature","properties":{"name":"Princess Street","highway":"primary","lanes":"2","lit":"yes","maxspeed":"50","note":"Former provincial highway - downloaded in 1998 - sections in Kingston are now designated \"Kingston 2\"","oneway":"yes","ref":"2","sidewalk":"separate","surface":"asphalt","wikipedia":"en:Princess Street (Kingston, Ontario)"},"geometry":{"type":"LineString","coordinates":[[-76.5115722,44.2412814],[-76.5116639,44.2413232],[-76.51277,44.2418273]]}},{"type":"Feature","properties":{"name":"Concession Street","highway":"secondary","lanes":"2","lit":"yes","oneway":"yes","sidewalk":"separate","surface":"asphalt"},"geometry":{"type":"LineString","coordinates":[[-76.5107024,44.2416549],[-76.5110819,44.2414919]]}},{"type":"Feature","properties":{"name":"Princess Street","highway":"primary","lanes":"2","lit":"yes","maxspeed":"50","note":"Former provincial highway - downloaded in 1998 - sections in Kingston are now designated \"Kingston 2\"","oneway":"yes","ref":"2","sidewalk":"separate","surface":"asphalt","wikipedia":"en:Princess Street (Kingston, Ontario)"},"geometry":{"type":"LineString","coordinates":[[-76.5117532,44.2412132],[-76.5115375,44.2411156]]}},{"type":"Feature","properties":{"name":"Princess Street","highway":"primary","lanes":"3","lit":"yes","maxspeed":"50","note":"Former provincial highway - downloaded in 1998 - sections in Kingston are now designated \"Kingston 2\"","oneway":"yes","ref":"2","restriction":"no_right_turn","sidewalk":"separate","surface":"asphalt","turn:lanes":"left|left;through|","wikipedia":"en:Princess Street (Kingston, Ontario)"},"geometry":{"type":"LineString","coordinates":[[-76.5122014,44.2414247],[-76.5119293,44.2412953],[-76.5118466,44.2412559],[-76.5117532,44.2412132]]}},{"type":"Feature","properties":{"name":"Concession Street","highway":"secondary","lanes":"2","lit":"yes","oneway":"yes","sidewalk":"separate","surface":"asphalt"},"geometry":{"type":"LineString","coordinates":[[-76.5112954,44.24115],[-76.5111558,44.2411648],[-76.5105599,44.2411609]]}},{"type":"Feature","properties":{"name":"Princess Street","cycleway:right":"lane","highway":"primary","lanes":"3","lit":"yes","maxspeed":"50","note":"Former provincial highway - downloaded in 1998 - sections in Kingston are now designated \"Kingston 2\"","oneway":"yes","ref":"2","sidewalk":"separate","surface":"asphalt","turn:lanes":"left|left;through|none","wikipedia":"en:Princess Street (Kingston, Ontario)"},"geometry":{"type":"LineString","coordinates":[[-76.5107079,44.2408657],[-76.5109547,44.2409841],[-76.5111975,44.2411006],[-76.5112954,44.24115]]}},{"type":"Feature","properties":{"name":"Sir John A. Macdonald Boulevard","expressway":"yes","highway":"secondary","lanes":"2","lit":"yes","maxspeed":"50","old_name":"Avenue Road","oneway":"yes","sidewalk":"separate","surface":"asphalt"},"geometry":{"type":"LineString","coordinates":[[-76.5192791,44.2403449],[-76.5192595,44.2402671],[-76.5191562,44.2396345]]}},{"type":"Feature","properties":{"name":"Sir John A. Macdonald Boulevard","expressway":"yes","highway":"secondary","lanes":"2","lit":"yes","maxspeed":"50","old_name":"Avenue Road","oneway":"yes","sidewalk":"separate","surface":"asphalt"},"geometry":{"type":"LineString","coordinates":[[-76.519288,44.2404501],[-76.5192791,44.2403449]]}},{"type":"Feature","properties":{"name":"Bath Road","highway":"primary","lanes":"2","lit":"yes","maxspeed":"50","note":"Former provincial highway - downloaded in 1998","oneway":"yes","ref":"33","sidewalk":"separate","surface":"asphalt"},"geometry":{"type":"LineString","coordinates":[[-76.5192791,44.2403449],[-76.5191094,44.2403552]]}},{"type":"Feature","properties":{"name":"Bath Road","highway":"primary","lanes":"3","lit":"yes","maxspeed":"50","note":"Former provincial highway - downloaded in 1998","oneway":"yes","ref":"33","sidewalk":"separate","surface":"asphalt","turn:lanes":"left||"},"geometry":{"type":"LineString","coordinates":[[-76.5201644,44.240281],[-76.5193879,44.240337],[-76.5192791,44.2403449]]}},{"type":"Feature","properties":{"name":"Sir John A. Macdonald Boulevard","expressway":"yes","highway":"secondary","lanes":"2","maxspeed":"50","oneway":"yes","surface":"asphalt"},"geometry":{"type":"LineString","coordinates":[[-76.514536,44.2309284],[-76.5145277,44.2308572],[-76.5144608,44.2302791]]}},{"type":"Feature","properties":{"name":"Johnson Street","cycleway:right":"lane","highway":"secondary","lanes":"3","lcn":"yes","oneway":"yes","surface":"asphalt","turn:lanes":"left||"},"geometry":{"type":"LineString","coordinates":[[-76.5164061,44.2308279],[-76.51585,44.2308269],[-76.5153162,44.2308774]]}},{"type":"Feature","properties":{"name":"Sir John A. Macdonald Boulevard","expressway":"yes","highway":"secondary","lanes":"3","lit":"yes","maxspeed":"50","oneway":"yes","sidewalk":"separate","surface":"asphalt","turn:lanes":"left|none|none"},"geometry":{"type":"LineString","coordinates":[[-76.5128376,44.2236479],[-76.5128309,44.2235715]]}},{"type":"Feature","properties":{"name":"Concession Street","highway":"secondary","lanes":"2","lit":"yes","oneway":"yes","sidewalk":"separate","surface":"asphalt"},"geometry":{"type":"LineString","coordinates":[[-76.5068723,44.2416952],[-76.5071065,44.2418491],[-76.5072061,44.2418985],[-76.507319,44.2419422],[-76.5075042,44.2419825],[-76.5077493,44.2420022]]}},{"type":"Feature","properties":{"name":"Leroy Grant Drive","highway":"tertiary","lanes":"2","surface":"asphalt"},"geometry":{"type":"LineString","coordinates":[[-76.5069013,44.2420071],[-76.5069485,44.2425131]]}},{"type":"Feature","properties":{"name":"Concession Street","highway":"secondary","lanes":"1","lit":"yes","oneway":"yes","sidewalk":"separate","surface":"asphalt"},"geometry":{"type":"LineString","coordinates":[[-76.5065612,44.2414879],[-76.5066511,44.2415466],[-76.5068723,44.2416952]]}},{"type":"Feature","properties":{"name":"Leroy Grant Drive","highway":"tertiary","lanes":"2","surface":"asphalt"},"geometry":{"type":"LineString","coordinates":[[-76.5068723,44.2416952],[-76.5068789,44.2417665],[-76.5068854,44.2418355],[-76.5069013,44.2420071]]}},{"type":"Feature","properties":{"name":"John Counter Boulevard","cycleway:right":"lane","highway":"secondary","lanes":"2","lcn":"yes","lit":"yes","maxspeed":"60","oneway":"yes","sidewalk":"separate","surface":"asphalt"},"geometry":{"type":"LineString","coordinates":[[-76.4978282,44.2597696],[-76.4980141,44.2597758]]}},{"type":"Feature","properties":{"name":"John Counter Boulevard","cycleway":"lane","cycleway:right":"lane","highway":"secondary","lanes":"1","lcn":"yes","lit":"yes","maxspeed":"60","oneway":"yes","sidewalk":"separate","surface":"asphalt","width":"5"},"geometry":{"type":"LineString","coordinates":[[-76.4979195,44.2596331],[-76.497745,44.2596244]]}},{"type":"Feature","properties":{"name":"Sir John A. Macdonald Boulevard","expressway":"yes","highway":"secondary","lanes":"2","lit":"yes","maxspeed":"50","old_name":"Avenue Road","oneway":"yes","sidewalk":"separate","surface":"asphalt"},"geometry":{"type":"LineString","coordinates":[[-76.5148301,44.2339053],[-76.5148264,44.2338522],[-76.5147973,44.2335712]]}},{"type":"Feature","properties":{"name":"Princess Street","highway":"primary","lanes":"2","lit":"yes","maxspeed":"50","note":"Former provincial highway - downloaded in 1998 - sections in Kingston are now designated \"Kingston 2\"","oneway":"yes","ref":"2","sidewalk":"separate","surface":"asphalt","wikipedia":"en:Princess Street (Kingston, Ontario)"},"geometry":{"type":"LineString","coordinates":[[-76.5146949,44.2426824],[-76.5148297,44.242741],[-76.5156087,44.2430755]]}},{"type":"Feature","properties":{"name":"Princess Street","highway":"primary","lanes":"2","lit":"yes","maxspeed":"50","note":"Former provincial highway - downloaded in 1998 - sections in Kingston are now designated \"Kingston 2\"","oneway":"yes","ref":"2","sidewalk":"separate","surface":"asphalt","wikipedia":"en:Princess Street (Kingston, Ontario)"},"geometry":{"type":"LineString","coordinates":[[-76.514299,44.2424953],[-76.5146949,44.2426824]]}},{"type":"Feature","properties":{"name":"Princess Street","cycleway":"lane","highway":"primary","lanes":"2","lit":"yes","maxspeed":"50","note":"Former provincial highway - downloaded in 1998 - sections in Kingston are now designated \"Kingston 2\"","parking:both":"lane","ref":"2","sidewalk":"separate","surface":"asphalt","wikipedia":"en:Princess Street (Kingston, Ontario)"},"geometry":{"type":"LineString","coordinates":[[-76.5034254,44.2377134],[-76.5035756,44.2377749],[-76.5037231,44.237836],[-76.503788,44.2378629],[-76.5042058,44.2380359],[-76.5042909,44.2380712],[-76.5045174,44.238165],[-76.5046557,44.2382236],[-76.5047962,44.2382832],[-76.5048442,44.2383036],[-76.5051269,44.2384234],[-76.5056329,44.2386427],[-76.5057263,44.2386814]]}},{"type":"Feature","properties":{"name":"Princess Street","cycleway":"lane","highway":"primary","lanes":"2","lit":"yes","maxspeed":"50","note":"Former provincial highway - downloaded in 1998 - sections in Kingston are now designated \"Kingston 2\"","ref":"2","sidewalk":"separate","surface":"asphalt","wikipedia":"en:Princess Street (Kingston, Ontario)"},"geometry":{"type":"LineString","coordinates":[[-76.5031112,44.2375865],[-76.5031954,44.2376205],[-76.503332,44.2376757],[-76.5033619,44.2376878],[-76.5034254,44.2377134]]}},{"type":"Feature","properties":{"name":"Victoria Street","highway":"tertiary","lanes":"2","lit":"yes","surface":"asphalt"},"geometry":{"type":"LineString","coordinates":[[-76.5031328,44.237881],[-76.5031177,44.2376746],[-76.5031112,44.2375865]]}},{"type":"Feature","properties":{"name":"Victoria Street","highway":"tertiary","lanes":"2","lit":"yes","surface":"asphalt"},"geometry":{"type":"LineString","coordinates":[[-76.5034629,44.2413072],[-76.5034095,44.2412474],[-76.5033078,44.2400278],[-76.5032102,44.2388605],[-76.5031328,44.237881]]}},{"type":"Feature","properties":{"name":"Sir John A. Macdonald Boulevard","expressway":"yes","highway":"secondary","lanes":"2","lit":"yes","maxspeed":"60","oneway":"yes","sidewalk":"no","surface":"asphalt"},"geometry":{"type":"LineString","coordinates":[[-76.5180811,44.2483294],[-76.5181267,44.2490252]]}},{"type":"Feature","properties":{"name":"Railway Street","cycleway:left":"lane","cycleway:right":"lane","highway":"tertiary","lanes":"2","surface":"asphalt"},"geometry":{"type":"LineString","coordinates":[[-76.4870987,44.2484531],[-76.486901,44.2482978],[-76.4868209,44.2482348]]}},{"type":"Feature","properties":{"name":"Montreal Street","cycleway":"lane","highway":"secondary","lanes":"2","lit":"yes","sidewalk":"separate","surface":"asphalt"},"geometry":{"type":"LineString","coordinates":[[-76.4868209,44.2482348],[-76.4867639,44.2483204]]}},{"type":"Feature","properties":{"name":"Division Street","cycleway":"lane","highway":"secondary","lanes":"2","lcn":"yes","lit":"yes","sidewalk":"separate","surface":"asphalt"},"geometry":{"type":"LineString","coordinates":[[-76.4958936,44.2481756],[-76.4958644,44.2479441]]}},{"type":"Feature","properties":{"name":"Railway Street","cycleway:left":"lane","cycleway:right":"lane","highway":"tertiary","lanes":"2","surface":"asphalt"},"geometry":{"type":"LineString","coordinates":[[-76.4958644,44.2479441],[-76.4957609,44.2479523],[-76.4955253,44.2479726]]}},{"type":"Feature","properties":{"name":"Sir John A. Macdonald Boulevard","expressway":"yes","highway":"secondary","lanes":"2","lit":"yes","maxspeed":"60","oneway":"yes","sidewalk":"separate","surface":"asphalt"},"geometry":{"type":"LineString","coordinates":[[-76.5192687,44.2590645],[-76.5192653,44.2589289]]}},{"type":"Feature","properties":{"name":"John Counter Boulevard","cycleway:right":"lane","highway":"secondary","lanes":"2","lcn":"yes","lit":"yes","maxspeed":"60","note":"Widened from 2 to 4 lanes in 2013","oneway":"yes","sidewalk":"separate","surface":"asphalt"},"geometry":{"type":"LineString","coordinates":[[-76.5192653,44.2589289],[-76.5191343,44.2589301]]}},{"type":"Feature","properties":{"name":"John Counter Boulevard","cycleway:right":"lane","highway":"secondary","lanes":"3","lcn":"yes","lit":"yes","maxspeed":"60","note":"Widened from 2 to 4 lanes in 2013","oneway":"yes","sidewalk":"separate","surface":"asphalt"},"geometry":{"type":"LineString","coordinates":[[-76.5197017,44.2589417],[-76.5194142,44.2589333],[-76.5192653,44.2589289]]}},{"type":"Feature","properties":{"name":"John Counter Boulevard","cycleway:right":"lane","highway":"secondary","lanes":"3","lcn":"yes","lit":"yes","maxspeed":"60","note":"Widened from 2 to 4 lanes in 2013","oneway":"yes","sidewalk":"separate","surface":"asphalt"},"geometry":{"type":"LineString","coordinates":[[-76.520961,44.258983],[-76.5207991,44.2589458],[-76.5201175,44.2589469],[-76.5197017,44.2589417]]}},{"type":"Feature","properties":{"name":"John Counter Boulevard","cycleway:right":"lane","highway":"secondary","lanes":"2","lcn":"yes","lit":"yes","maxspeed":"60","note":"Widened from 2 to 4 lanes in 2013","oneway":"yes","sidewalk":"separate","surface":"asphalt"},"geometry":{"type":"LineString","coordinates":[[-76.5191343,44.2589301],[-76.5189765,44.2589332],[-76.5184144,44.2589439],[-76.5182413,44.2589453],[-76.5180027,44.2589472],[-76.5164302,44.2589288]]}},{"type":"Feature","properties":{"name":"John Counter Boulevard","cycleway":"lane","highway":"secondary","lanes":"5","lanes:backward":"2","lanes:both_ways":"1","lanes:forward":"2","lcn":"yes","lit":"yes","maxspeed":"60","note":"Widened from 2 to 4 lanes in 2013","oneway":"no","sidewalk":"separate","surface":"asphalt"},"geometry":{"type":"LineString","coordinates":[[-76.5022768,44.2594595],[-76.5017674,44.2594803],[-76.5009138,44.2595151],[-76.5006547,44.2595257],[-76.5002204,44.2595619],[-76.499494,44.2596186]]}},{"type":"Feature","properties":{"name":"Yonge Street","highway":"tertiary","lanes":"2","lit":"yes","sidewalk":"separate","surface":"asphalt"},"geometry":{"type":"LineString","coordinates":[[-76.5183086,44.2287355],[-76.5183138,44.2287999],[-76.5183283,44.2289483],[-76.5183687,44.2293652],[-76.5183854,44.229537],[-76.5184034,44.2297223],[-76.5184269,44.229967],[-76.5184835,44.2305559],[-76.518485,44.2305807],[-76.5184901,44.2306342]]}},{"type":"Feature","properties":{"name":"Yonge Street","highway":"tertiary","lanes":"2","lit":"yes","sidewalk":"separate","surface":"asphalt"},"geometry":{"type":"LineString","coordinates":[[-76.5181433,44.2270003],[-76.5182117,44.2277623]]}},{"type":"Feature","properties":{"name":"Yonge Street","highway":"tertiary","lanes":"1","lit":"yes","oneway":"yes","sidewalk":"separate","surface":"asphalt"},"geometry":{"type":"LineString","coordinates":[[-76.5183086,44.2287355],[-76.5183523,44.2286559],[-76.5183662,44.2285591],[-76.51833,44.2282022],[-76.5183139,44.2280023],[-76.5182831,44.2278754],[-76.5182624,44.2278193],[-76.5182117,44.2277623]]}},{"type":"Feature","properties":{"name":"Concession Street","highway":"secondary","lanes":"3","lit":"yes","sidewalk":"separate","surface":"asphalt"},"geometry":{"type":"LineString","coordinates":[[-76.5029805,44.2413331],[-76.5023525,44.2413504]]}},{"type":"Feature","properties":{"name":"Sir John A. Macdonald Boulevard","expressway":"yes","highway":"secondary","lanes":"4","lit":"yes","maxspeed":"50","oneway":"yes","sidewalk":"separate","surface":"asphalt","turn:lanes":"left|||right"},"geometry":{"type":"LineString","coordinates":[[-76.5141118,44.2298913],[-76.5142336,44.2301022],[-76.5143113,44.230313],[-76.5143766,44.2308682],[-76.5143847,44.2309372]]}},{"type":"Feature","properties":{"name":"Sir John A. Macdonald Boulevard","expressway":"yes","highway":"secondary","lanes":"2","lit":"yes","maxspeed":"50","old_name":"Avenue Road","oneway":"yes","sidewalk":"separate","surface":"asphalt"},"geometry":{"type":"LineString","coordinates":[[-76.5147973,44.2335712],[-76.5145984,44.2316039]]}},{"type":"Feature","properties":{"name":"Division Street","cycleway":"lane","highway":"secondary","lanes":"3","lanes:backward":"1","lanes:forward":"2","lcn":"yes","lit":"yes","sidewalk":"separate","surface":"asphalt","turn:lanes:forward":"left|"},"geometry":{"type":"LineString","coordinates":[[-76.4933717,44.2347359],[-76.4933069,44.2345005],[-76.4932422,44.2342652],[-76.4932353,44.234232],[-76.4932179,44.2341476]]}},{"type":"Feature","properties":{"name":"Division Street","cycleway:right":"lane","highway":"secondary","lanes":"2","lcn":"yes","lit":"yes","oneway":"yes","sidewalk":"separate","surface":"asphalt"},"geometry":{"type":"LineString","coordinates":[[-76.4979195,44.2596331],[-76.497849,44.2595019],[-76.4977424,44.2592026],[-76.4976125,44.2590213]]}},{"type":"Feature","properties":{"name":"Division Street","highway":"secondary","lanes":"2","lit":"yes","maxspeed":"50","oneway":"yes","sidewalk":"separate","surface":"asphalt"},"geometry":{"type":"LineString","coordinates":[[-76.4978282,44.2597696],[-76.4978634,44.2598751],[-76.4980284,44.2602463],[-76.498215,44.2605938]]}},{"type":"Feature","properties":{"name":"John Counter Boulevard","cycleway:left":"lane","cycleway:right":"lane","highway":"secondary","lanes":"2","lcn":"yes","lit":"yes","maxspeed":"60","sidewalk":"separate","surface":"asphalt"},"geometry":{"type":"LineString","coordinates":[[-76.4927965,44.2575685],[-76.4932688,44.2577479],[-76.4936547,44.2579067],[-76.4943272,44.2582618],[-76.4950672,44.2587295],[-76.4955437,44.2590378],[-76.4958605,44.2592336]]}},{"type":"Feature","properties":{"name":"Rideau Street","highway":"tertiary","lanes":"2","sidewalk":"left","surface":"asphalt"},"geometry":{"type":"LineString","coordinates":[[-76.483785,44.2440575],[-76.4836841,44.2437134],[-76.4836749,44.2436819]]}},{"type":"Feature","properties":{"name":"King Street West","highway":"secondary","lanes":"2","lit":"yes","maxspeed":"40","old_name":"Front Street","sidewalk":"separate","surface":"asphalt"},"geometry":{"type":"LineString","coordinates":[[-76.5154091,44.2209351],[-76.5159447,44.2209142],[-76.5173578,44.2208678],[-76.5175291,44.2208622],[-76.5176272,44.220859]]}},{"type":"Feature","properties":{"name":"King Street West","highway":"secondary","lanes":"2","lit":"yes","maxspeed":"50","sidewalk":"separate","surface":"asphalt"},"geometry":{"type":"LineString","coordinates":[[-76.5020622,44.2221933],[-76.5021453,44.2221627],[-76.502277,44.222114],[-76.5025009,44.2220299],[-76.5027101,44.2219598],[-76.5028554,44.2219319],[-76.502923,44.2219187],[-76.503204,44.2218914],[-76.5044881,44.2217764],[-76.5056053,44.2216772],[-76.5063867,44.2216074],[-76.506527,44.2215956],[-76.5070328,44.2215504],[-76.5070684,44.2215479],[-76.5076371,44.2215088],[-76.5083411,44.2214651],[-76.5093845,44.2214021],[-76.50952,44.2213925],[-76.5105003,44.2213243],[-76.5108919,44.2212974],[-76.5123594,44.2211602],[-76.5125116,44.2211455]]}},{"type":"Feature","properties":{"name":"King Street East","highway":"secondary","lanes":"2","lit":"yes","sidewalk":"separate","surface":"asphalt"},"geometry":{"type":"LineString","coordinates":[[-76.4892846,44.2232911],[-76.4899061,44.2229736]]}},{"type":"Feature","properties":{"name":"King Street East","highway":"secondary","lanes":"2","lit":"yes","sidewalk":"separate","surface":"asphalt"},"geometry":{"type":"LineString","coordinates":[[-76.4872244,44.2243444],[-76.4872412,44.224336],[-76.4873178,44.2242973],[-76.4881483,44.2238783],[-76.4882439,44.2238315],[-76.4892846,44.2232911]]}},{"type":"Feature","properties":{"name":"John Counter Boulevard","cycleway:left":"lane","highway":"secondary","lanes":"2","lcn":"yes","lit":"yes","maxspeed":"50","sidewalk":"separate","surface":"asphalt"},"geometry":{"type":"LineString","coordinates":[[-76.4850422,44.2571343],[-76.4855664,44.2571075],[-76.4861963,44.2570753],[-76.4869221,44.2570382]]}},{"type":"Feature","properties":{"name":"Barrack Street","highway":"tertiary","lanes":"2","lit":"yes","parking:left":"yes","parking:left:orientation":"parallel","sidewalk":"separate","surface":"asphalt"},"geometry":{"type":"LineString","coordinates":[[-76.481866,44.2333592],[-76.4817674,44.2333424],[-76.4816336,44.2333203],[-76.4811375,44.2332387],[-76.4810401,44.2332226],[-76.4805271,44.2331381],[-76.4804774,44.2331299],[-76.4804354,44.2331222]]}},{"type":"Feature","properties":{"name":"Elliott Avenue","community_safety_zone":"yes","cycleway":"lane","cycleway:left":"lane","cycleway:right":"lane","hgv":"no","highway":"tertiary","lanes":"2","lit":"yes","sidewalk":"separate","surface":"asphalt"},"geometry":{"type":"LineString","coordinates":[[-76.4971859,44.2563784],[-76.4973619,44.2563707],[-76.4987277,44.2563023],[-76.4987508,44.2563009]]}},{"type":"Feature","properties":{"name":"Gore Road","check_date":"2022-12-13","highway":"secondary","lanes":"2","surface":"asphalt"},"geometry":{"type":"LineString","coordinates":[[-76.4653949,44.2591465],[-76.4650762,44.2591339],[-76.4647539,44.2591205],[-76.4643036,44.2590929],[-76.4637846,44.259064],[-76.463336,44.2590382]]}},{"type":"Feature","properties":{"name":"Waaban Crossing","alt_name":"Third Crossing","bridge":"yes","comment":"Waaban is an Ojibwe term meaning dawn or morning light.","highway":"secondary","lanes":"2","layer":"1","opening_date":"2022-12-13","surface":"asphalt"},"geometry":{"type":"LineString","coordinates":[[-76.4793102,44.2574668],[-76.4787072,44.2575386],[-76.4781138,44.2576139],[-76.4775314,44.2576981],[-76.4769419,44.257791],[-76.4763556,44.257891],[-76.4757716,44.2579961],[-76.4751846,44.2581177],[-76.4746172,44.2582471],[-76.4740359,44.2583766],[-76.4734655,44.2584891],[-76.4728856,44.2585982],[-76.4722968,44.2586949],[-76.4717072,44.2587868],[-76.4711205,44.2588644],[-76.4705334,44.2589363],[-76.4699368,44.2589946],[-76.4693391,44.259046],[-76.4684865,44.2591067],[-76.4678456,44.2591378],[-76.467272,44.2591569],[-76.4664867,44.2591641],[-76.4659455,44.2591587],[-76.4653949,44.2591465]]}},{"type":"Feature","properties":{"name":"Montreal Street","cycleway":"lane","highway":"secondary","lanes":"3","lanes:backward":"1","lanes:forward":"2","lit":"yes","sidewalk":"separate","surface":"asphalt","turn:lanes:forward":"left|"},"geometry":{"type":"LineString","coordinates":[[-76.482034,44.2591239],[-76.4818135,44.2596725]]}},{"type":"Feature","properties":{"name":"Montreal Street","cycleway":"lane","highway":"secondary","lanes":"2","lit":"yes","sidewalk":"separate","surface":"asphalt"},"geometry":{"type":"LineString","coordinates":[[-76.4821158,44.258923],[-76.482034,44.2591239]]}},{"type":"Feature","properties":{"name":"Ontario Street","highway":"secondary","lanes":"2","lit":"yes","sidewalk":"separate","surface":"asphalt"},"geometry":{"type":"LineString","coordinates":[[-76.4842784,44.2253326],[-76.4845474,44.2250408],[-76.4846788,44.2249001],[-76.4850118,44.2245448],[-76.4851861,44.2243572],[-76.4852796,44.2242591],[-76.4853324,44.224214],[-76.4853921,44.2241852],[-76.4854459,44.2241747],[-76.4855295,44.2241673]]}},{"type":"Feature","properties":{"name":"Gore Road","highway":"secondary","lanes":"2","oneway":"yes","surface":"asphalt"},"geometry":{"type":"LineString","coordinates":[[-76.461794,44.2589846],[-76.4611349,44.2590382],[-76.4606,44.25909],[-76.4605528,44.2590938],[-76.4604188,44.2591048]]}},{"type":"Feature","properties":{"name":"Palace Road","highway":"tertiary","lanes":"2","lcn":"yes","lit":"yes","sidewalk":"separate","surface":"asphalt"},"geometry":{"type":"LineString","coordinates":[[-76.5135736,44.2311983],[-76.513563,44.23115],[-76.5135582,44.2311005],[-76.5135548,44.2310657],[-76.5135471,44.2309861]]}},{"type":"Feature","properties":{"name":"Montreal Street","cycleway":"lane","highway":"secondary","lanes":"2","lit":"yes","sidewalk":"separate","surface":"asphalt"},"geometry":{"type":"LineString","coordinates":[[-76.4850708,44.2347476],[-76.4850724,44.2348226],[-76.4851138,44.2358177],[-76.4851301,44.2364732]]}},{"type":"Feature","properties":{"name":"Victoria Street","highway":"tertiary","lanes":"2","lit":"yes","surface":"asphalt"},"geometry":{"type":"LineString","coordinates":[[-76.5024725,44.2267576],[-76.5024763,44.2268212],[-76.5024784,44.2268553],[-76.5026429,44.229589],[-76.5026464,44.2296465],[-76.5026499,44.2297061],[-76.502751,44.2314284],[-76.5027542,44.2314827]]}},{"type":"Feature","properties":{"name":"Victoria Street","highway":"tertiary","lanes":"2","lit":"yes","surface":"asphalt"},"geometry":{"type":"LineString","coordinates":[[-76.5027542,44.2314827],[-76.5027575,44.231535],[-76.5028304,44.2327038],[-76.5028343,44.2327679]]}},{"type":"Feature","properties":{"name":"Victoria Street","highway":"tertiary","surface":"asphalt"},"geometry":{"type":"LineString","coordinates":[[-76.5030711,44.236846],[-76.5030932,44.2372548],[-76.5031064,44.2374983],[-76.5031112,44.2375865]]}},{"type":"Feature","properties":{"name":"Victoria Street","highway":"tertiary","surface":"asphalt"},"geometry":{"type":"LineString","coordinates":[[-76.503015,44.2358845],[-76.5030711,44.236846]]}},{"type":"Feature","properties":{"name":"Victoria Street","highway":"tertiary","surface":"asphalt"},"geometry":{"type":"LineString","coordinates":[[-76.5028343,44.2327679],[-76.5028384,44.2328397],[-76.5029048,44.2339968],[-76.5029078,44.2340484]]}},{"type":"Feature","properties":{"name":"Victoria Street","highway":"tertiary","surface":"asphalt"},"geometry":{"type":"LineString","coordinates":[[-76.5029078,44.2340484],[-76.5029108,44.2340994],[-76.503015,44.2358845]]}},{"type":"Feature","properties":{"name":"Bagot Street","highway":"tertiary","lanes":"2","lit":"yes","sidewalk":"separate","surface":"asphalt"},"geometry":{"type":"LineString","coordinates":[[-76.4837722,44.2336694],[-76.4837713,44.2336408],[-76.4837866,44.233349],[-76.4837962,44.2332471],[-76.4838157,44.2331439]]}},{"type":"Feature","properties":{"name":"Ontario Street","cycleway:right":"shared_lane","highway":"primary","lanes":"1","lit":"yes","maxspeed":"50","note":"Former provincial highway - downloaded in 1998 - sections in Kingston are now designated \"Kingston 2\"","oneway":"yes","ref":"2","sidewalk":"separate","surface":"asphalt"},"geometry":{"type":"LineString","coordinates":[[-76.4787486,44.2334565],[-76.4786332,44.2336475],[-76.4785614,44.2338687],[-76.4785282,44.2339419],[-76.4784845,44.2339999],[-76.4784036,44.234075],[-76.4782948,44.2341405],[-76.4780841,44.2342498]]}},{"type":"Feature","properties":{"name":"Highway 2","highway":"primary","lanes":"2","maxspeed":"60","note":"Former provincial highway - downloaded in 1998 - sections in Kingston are now designated \"Kingston 2\"","old_name":"Highway 2","ref":"2","sidewalk:left":"separate","sidewalk:right":"no","surface":"asphalt"},"geometry":{"type":"LineString","coordinates":[[-76.466685,44.2365707],[-76.4665588,44.236623]]}},{"type":"Feature","properties":{"name":"Wellington Street","highway":"tertiary","lanes":"2","lit":"yes","parking:lane:both":"parallel","sidewalk":"both","surface":"asphalt"},"geometry":{"type":"LineString","coordinates":[[-76.4827605,44.2306838],[-76.4827094,44.2307614],[-76.4825992,44.2310901],[-76.4825582,44.231216],[-76.4824627,44.2315089],[-76.4824378,44.2315659]]}},{"type":"Feature","properties":{"name":"Sir John A. Macdonald Boulevard","expressway":"yes","highway":"secondary","lanes":"2","lit":"yes","maxspeed":"50","old_name":"Avenue Road","oneway":"yes","sidewalk":"separate","surface":"asphalt"},"geometry":{"type":"LineString","coordinates":[[-76.5191094,44.2403552],[-76.5191152,44.2404651],[-76.5191245,44.2405593],[-76.5191425,44.2409514],[-76.5191785,44.2412694],[-76.5191928,44.2415121]]}},{"type":"Feature","properties":{"name":"Sir John A. Macdonald Boulevard","expressway":"yes","highway":"secondary","lanes":"3","lit":"yes","maxspeed":"50","oneway":"yes","sidewalk":"separate","surface":"asphalt","turn:lanes":"left|none|none"},"geometry":{"type":"LineString","coordinates":[[-76.5191928,44.2415121],[-76.5192208,44.241987]]}},{"type":"Feature","properties":{"name":"Sir John A. Macdonald Boulevard","expressway":"yes","highway":"secondary","lanes":"5","lit":"yes","maxspeed":"50","old_name":"Avenue Road","oneway":"yes","sidewalk":"separate","surface":"asphalt","turn:lanes":"left|left|none|none|right"},"geometry":{"type":"LineString","coordinates":[[-76.5193052,44.2432904],[-76.5193189,44.2435624],[-76.5193298,44.2437909],[-76.5193167,44.2440015],[-76.5192934,44.2441374]]}},{"type":"Feature","properties":{"name":"Sir John A. Macdonald Boulevard","expressway":"yes","highway":"secondary","lanes":"2","lit":"yes","maxspeed":"60","oneway":"yes","sidewalk":"no","surface":"asphalt"},"geometry":{"type":"LineString","coordinates":[[-76.5191343,44.2589301],[-76.5191441,44.259064]]}},{"type":"Feature","properties":{"name":"Niagara Park","highway":"tertiary","lanes":"5","maxspeed":"30","name:en":"Niagara Park","name:fr":"Parc Niagara","surface":"asphalt"},"geometry":{"type":"LineString","coordinates":[[-76.4553463,44.2394326],[-76.4553557,44.2393321],[-76.455368,44.2391597],[-76.4553725,44.2389546]]}},{"type":"Feature","properties":{"name":"Highway 2","highway":"primary","lanes":"3","lanes:backward":"2","lanes:forward":"1","note":"Former provincial highway - downloaded in 1998 - sections in Kingston are now designated \"Kingston 2\"","old_name":"Highway 2","ref":"2","surface":"asphalt","turn:lanes:backward":"|right"},"geometry":{"type":"LineString","coordinates":[[-76.4583978,44.239725],[-76.4581997,44.2397665],[-76.4576754,44.2398562],[-76.457084,44.23992],[-76.4568579,44.2399335]]}},{"type":"Feature","properties":{"name":"Highway 2","highway":"primary","lanes":"5","lanes:backward":"2","lanes:forward":"3","note":"Former provincial highway - downloaded in 1998 - sections in Kingston are now designated \"Kingston 2\"","old_name":"Highway 2","ref":"2","surface":"asphalt","turn:lanes:forward":"left|through|right"},"geometry":{"type":"LineString","coordinates":[[-76.4568579,44.2399335],[-76.4554534,44.2400177]]}},{"type":"Feature","properties":{"name":"Highway 2","highway":"primary","lanes":"4","lanes:backward":"3","lanes:forward":"1","note":"Former provincial highway - downloaded in 1998 - sections in Kingston are now designated \"Kingston 2\"","old_name":"Highway 2","ref":"2","surface":"asphalt","turn:lanes:backward":"left|through|right"},"geometry":{"type":"LineString","coordinates":[[-76.4554534,44.2400177],[-76.4552613,44.2400314],[-76.4551386,44.2400397],[-76.4543356,44.2400939]]}},{"type":"Feature","properties":{"name":"Highway 2","highway":"primary","lanes":"3","lanes:backward":"2","lanes:forward":"1","note":"Former provincial highway - downloaded in 1998 - sections in Kingston are now designated \"Kingston 2\"","old_name":"Highway 2","ref":"2","surface":"asphalt"},"geometry":{"type":"LineString","coordinates":[[-76.4543356,44.2400939],[-76.4538753,44.240126]]}},{"type":"Feature","properties":{"name":"Leroy Grant Drive","highway":"tertiary","lanes":"1","oneway":"yes","surface":"asphalt"},"geometry":{"type":"LineString","coordinates":[[-76.5068851,44.2412379],[-76.5068363,44.2413036],[-76.5068301,44.2413119],[-76.506833,44.2415739],[-76.5068723,44.2416952]]}},{"type":"Feature","properties":{"name":"Princess Street","highway":"primary","lanes":"2","lit":"yes","maxspeed":"50","note":"Former provincial highway - downloaded in 1998 - sections in Kingston are now designated \"Kingston 2\"","oneway":"yes","ref":"2","sidewalk":"separate","surface":"asphalt","wikipedia":"en:Princess Street (Kingston, Ontario)"},"geometry":{"type":"LineString","coordinates":[[-76.5108729,44.2407931],[-76.5106637,44.2407193],[-76.5104458,44.240629],[-76.5103092,44.2406267]]}},{"type":"Feature","properties":{"name":"Princess Street","cycleway:right":"lane","highway":"primary","lanes":"3","lit":"yes","maxspeed":"50","note":"Former provincial highway - downloaded in 1998 - sections in Kingston are now designated \"Kingston 2\"","oneway":"yes","ref":"2","sidewalk":"separate","surface":"asphalt","wikipedia":"en:Princess Street (Kingston, Ontario)"},"geometry":{"type":"LineString","coordinates":[[-76.5103092,44.2406267],[-76.5103797,44.2406998],[-76.5107079,44.2408657]]}},{"type":"Feature","properties":{"name":"Princess Street","highway":"primary","lanes":"2","lit":"yes","maxspeed":"50","note":"Former provincial highway - downloaded in 1998 - sections in Kingston are now designated \"Kingston 2\"","oneway":"yes","ref":"2","sidewalk":"separate","surface":"asphalt","wikipedia":"en:Princess Street (Kingston, Ontario)"},"geometry":{"type":"LineString","coordinates":[[-76.5097999,44.2404048],[-76.5097557,44.2403422],[-76.5096544,44.2402994],[-76.5095489,44.2402845]]}},{"type":"Feature","properties":{"name":"Princess Street","cycleway:right":"lane","highway":"primary","lanes":"2","lit":"yes","maxspeed":"50","note":"Former provincial highway - downloaded in 1998 - sections in Kingston are now designated \"Kingston 2\"","oneway":"yes","ref":"2","sidewalk":"separate","surface":"asphalt","wikipedia":"en:Princess Street (Kingston, Ontario)"},"geometry":{"type":"LineString","coordinates":[[-76.5095489,44.2402845],[-76.509592,44.240342],[-76.5097288,44.2403992],[-76.5097999,44.2404048]]}},{"type":"Feature","properties":{"name":"King Street East","highway":"tertiary","lanes":"2","lit":"yes","sidewalk":"separate","surface":"asphalt"},"geometry":{"type":"LineString","coordinates":[[-76.4818485,44.2296593],[-76.4818023,44.2297276],[-76.4817806,44.2297597]]}},{"type":"Feature","properties":{"name":"Brock Street","highway":"secondary","lanes":"2","lcn":"yes","lit":"yes","oneway":"yes","sidewalk":"separate","surface":"asphalt"},"geometry":{"type":"LineString","coordinates":[[-76.4797804,44.2302225],[-76.4798984,44.230245],[-76.4799627,44.2302573]]}},{"type":"Feature","properties":{"name":"Princess Street","highway":"primary","lanes":"2","lit":"yes","maxspeed":"50","note":"Former provincial highway - downloaded in 1998 - sections in Kingston are now designated \"Kingston 2\"","oneway":"yes","ref":"2","sidewalk":"separate","surface":"asphalt","wikipedia":"en:Princess Street (Kingston, Ontario)"},"geometry":{"type":"LineString","coordinates":[[-76.5204099,44.2452093],[-76.5203262,44.2451201],[-76.5199768,44.244963]]}},{"type":"Feature","properties":{"name":"Johnson Street","cycleway:right":"shared_lane","highway":"secondary","lanes":"2","lcn":"yes","lit":"yes","oneway":"yes","sidewalk":"separate","surface":"asphalt"},"geometry":{"type":"LineString","coordinates":[[-76.4828755,44.2290348],[-76.4826274,44.2289206],[-76.4825384,44.2288804]]}},{"type":"Feature","properties":{"name":"Queen Street","highway":"primary","lanes":"4","lit":"yes","note":"Former provincial highway - downloaded in 1998 - sections in Kingston are now designated \"Kingston 2\"","parking:right":"yes","parking:right:orientation":"parallel","ref":"2","sidewalk":"separate","surface":"asphalt"},"geometry":{"type":"LineString","coordinates":[[-76.4792043,44.2319875],[-76.4793282,44.232006],[-76.4796304,44.232051],[-76.4796651,44.2320562],[-76.4801329,44.2321258],[-76.4805801,44.2321968],[-76.4806737,44.2322122]]}},{"type":"Feature","properties":{"name":"Queen Street","highway":"tertiary","lanes":"2"},"geometry":{"type":"LineString","coordinates":[[-76.4792043,44.2319875],[-76.479098,44.2319712],[-76.4789767,44.2319531]]}},{"type":"Feature","properties":{"name":"tertiary","highway":"tertiary","lanes":"2","oneway":"yes"},"geometry":{"type":"LineString","coordinates":[[-76.4789767,44.2319531],[-76.4789399,44.2319535],[-76.4789123,44.2319697],[-76.4789023,44.231993]]}},{"type":"Feature","properties":{"name":"Division Street","highway":"secondary","lanes":"1","lcn":"yes","lit":"yes","oneway":"yes","sidewalk":"separate","surface":"asphalt"},"geometry":{"type":"LineString","coordinates":[[-76.4949582,44.2418545],[-76.4949284,44.2419247],[-76.4949942,44.2423157],[-76.4950564,44.2423931]]}},{"type":"Feature","properties":{"name":"John Counter Boulevard","highway":"secondary","lanes":"1","lcn":"yes","lit":"yes","maxspeed":"50","oneway":"yes","sidewalk":"separate","surface":"asphalt"},"geometry":{"type":"LineString","coordinates":[[-76.4835115,44.2572116],[-76.4836207,44.257237],[-76.4839106,44.2572253],[-76.4840143,44.2571869]]}},{"type":"Feature","properties":{"name":"John Counter Boulevard","highway":"secondary","lanes":"3","lanes:backward":"2","lanes:forward":"1","lcn":"yes","lit":"yes","maxspeed":"50","sidewalk":"separate","surface":"asphalt"},"geometry":{"type":"LineString","coordinates":[[-76.4833107,44.2572254],[-76.4835115,44.2572116]]}},{"type":"Feature","properties":{"name":"John Counter Boulevard","highway":"secondary","lanes":"2","lcn":"yes","lit":"yes","maxspeed":"50","oneway":"yes","sidewalk":"separate","surface":"asphalt"},"geometry":{"type":"LineString","coordinates":[[-76.4840143,44.2571869],[-76.4838864,44.2571665],[-76.4836168,44.2571775],[-76.4835115,44.2572116]]}},{"type":"Feature","properties":{"name":"John Counter Boulevard","cycleway:right":"lane","highway":"secondary","lanes":"2","lcn":"yes","lit":"yes","maxspeed":"60","note":"Widened from 2 to 4 lanes in 2013","oneway":"yes","sidewalk":"separate","surface":"asphalt"},"geometry":{"type":"LineString","coordinates":[[-76.5062456,44.2592817],[-76.506024,44.2592872],[-76.504923,44.2593266],[-76.5047703,44.2593851]]}},{"type":"Feature","properties":{"name":"John Counter Boulevard","cycleway":"lane","highway":"secondary","lanes":"4","lcn":"yes","lit":"yes","maxspeed":"60","note":"Widened from 2 to 4 lanes in 2013","oneway":"no","sidewalk":"separate","surface":"asphalt"},"geometry":{"type":"LineString","coordinates":[[-76.5047703,44.2593851],[-76.5040696,44.2594051],[-76.5039349,44.259409]]}},{"type":"Feature","properties":{"name":"John Counter Boulevard","cycleway:right":"lane","highway":"secondary","lanes":"2","lcn":"yes","lit":"yes","maxspeed":"60","note":"Widened from 2 to 4 lanes in 2013","oneway":"yes","sidewalk":"separate","surface":"asphalt"},"geometry":{"type":"LineString","coordinates":[[-76.5039349,44.259409],[-76.5037647,44.2593381],[-76.5030702,44.2593621],[-76.5024289,44.2593838],[-76.5022768,44.2594595]]}},{"type":"Feature","properties":{"name":"John Counter Boulevard","cycleway:right":"lane","highway":"secondary","lanes":"2","lcn":"yes","lit":"yes","maxspeed":"60","note":"Widened from 2 to 4 lanes in 2013","oneway":"yes","sidewalk":"separate","surface":"asphalt"},"geometry":{"type":"LineString","coordinates":[[-76.5022768,44.2594595],[-76.5024357,44.2595242],[-76.5025796,44.2595199],[-76.503087,44.2595047],[-76.5037663,44.259486],[-76.5039349,44.259409]]}},{"type":"Feature","properties":{"name":"John Counter Boulevard","cycleway:right":"lane","highway":"secondary","lanes":"3","lcn":"yes","lit":"yes","maxspeed":"60","note":"Widened from 2 to 4 lanes in 2013","oneway":"yes","sidewalk":"separate","surface":"asphalt"},"geometry":{"type":"LineString","coordinates":[[-76.5159775,44.2590514],[-76.5172842,44.2590557],[-76.517775,44.2590537]]}},{"type":"Feature","properties":{"name":"Bagot Street","highway":"tertiary","lanes":"2","lit":"yes","parking:lane:right":"parallel","parking:lane:right:parallel":"street_side","sidewalk":"separate","surface":"asphalt"},"geometry":{"type":"LineString","coordinates":[[-76.4879082,44.226964],[-76.4879679,44.2269068],[-76.4881376,44.2267981],[-76.4894255,44.2260139],[-76.4895267,44.2259504],[-76.4895341,44.2259457],[-76.4904596,44.22538],[-76.4905575,44.2253239]]}},{"type":"Feature","properties":{"name":"Bath Road","highway":"primary","lanes":"2","lit":"yes","maxspeed":"50","note":"Former provincial highway - downloaded in 1998","oneway":"yes","ref":"33","sidewalk":"separate","surface":"asphalt"},"geometry":{"type":"LineString","coordinates":[[-76.5191152,44.2404651],[-76.519288,44.2404501]]}},{"type":"Feature","properties":{"name":"John Counter Boulevard","highway":"secondary","lanes":"2","short_name":"John Counter Blvd","surface":"asphalt"},"geometry":{"type":"LineString","coordinates":[[-76.4809925,44.257343],[-76.4800275,44.2574032],[-76.4793102,44.2574668]]}},{"type":"Feature","properties":{"name":"Gore Road","cycleway:right":"yes","highway":"secondary","lanes":"2","oneway":"yes","surface":"asphalt"},"geometry":{"type":"LineString","coordinates":[[-76.4627182,44.2590536],[-76.4628514,44.2590553],[-76.4628924,44.2590566],[-76.4631668,44.2590651],[-76.463336,44.2590382]]}},{"type":"Feature","properties":{"name":"Gore Road","highway":"secondary","lanes":"2","oneway":"yes","surface":"asphalt"},"geometry":{"type":"LineString","coordinates":[[-76.463336,44.2590382],[-76.4631777,44.2589969],[-76.4628878,44.2589789],[-76.462846,44.2589763],[-76.4627112,44.2589722]]}},{"type":"Feature","properties":{"name":"Highway 15","alt_name":"County Road 15","highway":"secondary","lanes":"3","lit":"no","maxspeed":"60","oneway":"yes","ref":"15","short_name":"Hwy 15","sidewalk":"right","surface":"asphalt","turn:lanes":"left||right"},"geometry":{"type":"LineString","coordinates":[[-76.4602012,44.2598597],[-76.4602638,44.259771],[-76.4603467,44.2595287],[-76.4603497,44.2595127],[-76.4603837,44.259329],[-76.4603889,44.2593013],[-76.4604077,44.2591984]]}},{"type":"Feature","properties":{"name":"Highway 15","alt_name":"County Road 15","highway":"secondary","lanes":"2","lit":"yes","maxspeed":"60","oneway":"yes","ref":"15","short_name":"Hwy 15","sidewalk":"no","surface":"asphalt"},"geometry":{"type":"LineString","coordinates":[[-76.4604188,44.2591048],[-76.4604252,44.2589815],[-76.4604271,44.258953],[-76.460438,44.2587944],[-76.4603946,44.2587501]]}},{"type":"Feature","properties":{"name":"Gore Road","highway":"tertiary","lanes":"1","maxspeed":"40","oneway":"yes","surface":"asphalt"},"geometry":{"type":"LineString","coordinates":[[-76.4603173,44.2591139],[-76.4601434,44.2591319],[-76.4601125,44.2591345],[-76.4600511,44.2591393],[-76.4599283,44.2591556],[-76.4598209,44.2592007]]}},{"type":"Feature","properties":{"name":"Gore Road","highway":"tertiary","lanes":"2","maxspeed":"40","oneway":"yes","surface":"asphalt"},"geometry":{"type":"LineString","coordinates":[[-76.4598209,44.2592007],[-76.4599451,44.2592156],[-76.4601073,44.2592077],[-76.4601386,44.2592062],[-76.4603104,44.2592014]]}},{"type":"Feature","properties":{"name":"Gore Road","check_date":"2025-08-10","check_date:surface":"2025-08-10","highway":"secondary","lane_markings":"no","oneway":"yes","surface":"asphalt"},"geometry":{"type":"LineString","coordinates":[[-76.4627112,44.2589722],[-76.4625365,44.2589653],[-76.4621684,44.2589672],[-76.461794,44.2589846]]}},{"type":"Feature","properties":{"name":"Gore Road","check_date":"2025-08-10","check_date:surface":"2025-08-10","highway":"secondary","lanes":"2","oneway":"yes","surface":"asphalt"},"geometry":{"type":"LineString","coordinates":[[-76.4604077,44.2591984],[-76.4605509,44.25919],[-76.4606103,44.2591865],[-76.4611177,44.2591414],[-76.4618026,44.2590862],[-76.4621631,44.2590649],[-76.46255,44.259054],[-76.4627182,44.2590536]]}},{"type":"Feature","properties":{"name":"Gore Road","highway":"secondary","lanes":"2","oneway":"yes"},"geometry":{"type":"LineString","coordinates":[[-76.4604188,44.2591048],[-76.4603173,44.2591139]]}},{"type":"Feature","properties":{"name":"Gore Road","highway":"secondary","lanes":"2","maxspeed":"40","oneway":"yes","surface":"asphalt"},"geometry":{"type":"LineString","coordinates":[[-76.4603104,44.2592014],[-76.4604077,44.2591984]]}},{"type":"Feature","properties":{"name":"Division Street","cycleway:right":"lane","highway":"tertiary","lanes":"4","lanes:backward":"2","lanes:forward":"2","lcn":"yes","lit":"yes","sidewalk":"separate","surface":"asphalt"},"geometry":{"type":"LineString","coordinates":[[-76.492935,44.2329997],[-76.4929525,44.2330714],[-76.4929859,44.2332084]]}},{"type":"Feature","properties":{"name":"Division Street","cycleway:right":"lane","highway":"tertiary","lanes":"3","lanes:backward":"1","lanes:forward":"2","lcn":"yes","lit":"yes","sidewalk":"separate","surface":"asphalt","turn:lanes:forward":"left|through;right"},"geometry":{"type":"LineString","coordinates":[[-76.4929859,44.2332084],[-76.4930037,44.2332813],[-76.4930202,44.2333488],[-76.4930485,44.2334502]]}},{"type":"Feature","properties":{"name":"University Avenue","cycleway":"lane","highway":"tertiary","lanes":"2","lit":"yes","maxspeed":"40","old_name":"Gordon Street","sidewalk":"separate","surface":"asphalt"},"geometry":{"type":"LineString","coordinates":[[-76.4956718,44.232623],[-76.4956734,44.2326856],[-76.4956851,44.2334008],[-76.4957,44.2339319],[-76.4957133,44.2344073],[-76.4956979,44.2344303],[-76.4956483,44.2345043]]}},{"type":"Feature","properties":{"name":"Montreal Street","highway":"secondary","lanes":"2","lit":"yes","parking:both":"yes","parking:both:orientation":"parallel","sidewalk":"separate","surface":"asphalt"},"geometry":{"type":"LineString","coordinates":[[-76.4855558,44.2320613],[-76.4855357,44.2321265],[-76.4854598,44.2323748],[-76.4853129,44.2328551],[-76.4852892,44.2329304]]}},{"type":"Feature","properties":{"name":"Queen Street","highway":"primary","lanes":"4","lit":"yes","note":"Former provincial highway - downloaded in 1998 - sections in Kingston are now designated \"Kingston 2\"","parking:lane:left":"parallel","ref":"2","sidewalk":"separate","surface":"asphalt"},"geometry":{"type":"LineString","coordinates":[[-76.4839361,44.2327241],[-76.4840505,44.2327409],[-76.4846431,44.2328311],[-76.4846901,44.2328382],[-76.4851875,44.2329137],[-76.4852892,44.2329304]]}},{"type":"Feature","properties":{"name":"Brock Street","cycleway:right":"lane","highway":"secondary","lanes":"2","lcn":"yes","lit":"yes","oneway":"yes","sidewalk":"separate","surface":"asphalt"},"geometry":{"type":"LineString","coordinates":[[-76.4927448,44.2321935],[-76.4928492,44.2322082],[-76.4932131,44.2322587],[-76.4936062,44.2323144],[-76.4938418,44.2323478],[-76.4955905,44.2326104],[-76.4956718,44.232623]]}},{"type":"Feature","properties":{"name":"Montreal Street","highway":"secondary","lanes":"2","lit":"yes","parking:both":"yes","parking:both:orientation":"parallel","sidewalk":"separate","surface":"asphalt"},"geometry":{"type":"LineString","coordinates":[[-76.4858227,44.2311441],[-76.4857996,44.2312274],[-76.4857266,44.2314836],[-76.4856945,44.2315941],[-76.4855755,44.2319975],[-76.4855558,44.2320613]]}},{"type":"Feature","properties":{"name":"Leroy Grant Drive","cycleway":"separate","hgv":"no","highway":"tertiary","lanes":"2","lit":"yes","sidewalk":"separate","surface":"asphalt"},"geometry":{"type":"LineString","coordinates":[[-76.506262,44.2594324],[-76.5062456,44.2592817]]}},{"type":"Feature","properties":{"name":"John Counter Boulevard","highway":"secondary","lanes":"2","lcn":"yes","lit":"yes","maxspeed":"50","sidewalk":"separate","surface":"asphalt"},"geometry":{"type":"LineString","coordinates":[[-76.4840143,44.2571869],[-76.4842714,44.2571738],[-76.4850422,44.2571343]]}},{"type":"Feature","properties":{"name":"John Counter Boulevard","cycleway:left":"lane","cycleway:right":"lane","highway":"secondary","lanes":"3","lanes:backward":"1","lanes:forward":"2","lcn":"yes","lit":"yes","maxspeed":"60","sidewalk":"separate","surface":"asphalt"},"geometry":{"type":"LineString","coordinates":[[-76.4918483,44.2572942],[-76.4927965,44.2575685]]}},{"type":"Feature","properties":{"name":"John Counter Boulevard","cycleway:left":"lane","cycleway:right":"lane","highway":"secondary","lanes":"3","lanes:backward":"1","lanes:forward":"2","lcn":"yes","lit":"yes","maxspeed":"50","sidewalk":"separate","surface":"asphalt"},"geometry":{"type":"LineString","coordinates":[[-76.4908842,44.2570815],[-76.4911934,44.2571392],[-76.4918483,44.2572942]]}},{"type":"Feature","properties":{"name":"John Counter Boulevard","cycleway:left":"lane","cycleway:right":"lane","highway":"secondary","lanes":"3","lcn":"yes","lit":"yes","maxspeed":"60","sidewalk":"separate","surface":"asphalt"},"geometry":{"type":"LineString","coordinates":[[-76.4958605,44.2592336],[-76.4963703,44.2594661],[-76.4967715,44.2595732]]}},{"type":"Feature","properties":{"name":"Union Street","cycleway":"lane","highway":"tertiary","lanes":"2","lcn":"yes","lit":"yes","maxspeed":"40","sidewalk":"separate","surface":"asphalt"},"geometry":{"type":"LineString","coordinates":[[-76.5013746,44.2270112],[-76.49982,44.2272841],[-76.4997423,44.2272978],[-76.4996457,44.227316],[-76.4993358,44.2273742],[-76.4990505,44.2274278]]}},{"type":"Feature","properties":{"name":"Union Street","cycleway":"lane","highway":"tertiary","lanes":"2","lcn":"yes","lit":"yes","maxspeed":"40","sidewalk":"separate","surface":"asphalt"},"geometry":{"type":"LineString","coordinates":[[-76.4990505,44.2274278],[-76.498942,44.2274482]]}},{"type":"Feature","properties":{"name":"Niagara Park","highway":"tertiary","lanes":"2","maxspeed":"30","name:en":"Niagara Park","name:fr":"Parc Niagara","surface":"asphalt"},"geometry":{"type":"LineString","coordinates":[[-76.4553725,44.2389546],[-76.4552966,44.2382309]]}},{"type":"Feature","properties":{"name":"Johnson Street","cycleway:right":"lane","highway":"secondary","lanes":"2","lcn":"yes","lit":"yes","oneway":"yes","sidewalk":"separate","surface":"asphalt"},"geometry":{"type":"LineString","coordinates":[[-76.5135471,44.2309861],[-76.5126447,44.2310527],[-76.5123527,44.2310731],[-76.5116107,44.2311248],[-76.5109529,44.2311661],[-76.5098593,44.2312267],[-76.5086642,44.2312865]]}},{"type":"Feature","properties":{"name":"Brock Street","cycleway:right":"lane","highway":"secondary","lane_markings":"yes","lanes":"2","lcn":"yes","lit":"yes","oneway":"yes","sidewalk":"separate","surface":"asphalt"},"geometry":{"type":"LineString","coordinates":[[-76.5087978,44.2325556],[-76.5088777,44.2325518],[-76.5099895,44.2324992],[-76.5110743,44.2324432],[-76.511404,44.2324253],[-76.5123732,44.2323726],[-76.5124855,44.2323677],[-76.5135057,44.2323231],[-76.5135669,44.2323204],[-76.513667,44.2323193]]}},{"type":"Feature","properties":{"name":"King Street West","highway":"secondary","lanes":"2","lit":"yes","maxspeed":"40","sidewalk":"separate","surface":"asphalt"},"geometry":{"type":"LineString","coordinates":[[-76.4994429,44.2225384],[-76.4995457,44.2225284],[-76.5009465,44.2223921],[-76.5010065,44.2223866],[-76.5011126,44.2223766],[-76.5015129,44.222339],[-76.5016585,44.2223121],[-76.5016858,44.2223041],[-76.5020622,44.2221933]]}},{"type":"Feature","properties":{"name":"Bagot Street","highway":"tertiary","lanes":"2","lit":"yes","parking:lane:left":"parallel","sidewalk":"separate","surface":"asphalt"},"geometry":{"type":"LineString","coordinates":[[-76.4844862,44.2309312],[-76.4845689,44.2308292],[-76.4848016,44.2305533],[-76.4848754,44.2304635],[-76.4851253,44.2301594],[-76.4851765,44.2300971]]}},{"type":"Feature","properties":{"name":"Bagot Street","highway":"tertiary","lanes":"3","lit":"yes","sidewalk":"separate","surface":"asphalt"},"geometry":{"type":"LineString","coordinates":[[-76.4838157,44.2331439],[-76.4839134,44.2328047],[-76.4839361,44.2327241]]}},{"type":"Feature","properties":{"name":"Concession Street","highway":"secondary","lanes":"3","lanes:backward":"2","lanes:forward":"1","lit":"yes","sidewalk":"separate","surface":"asphalt","turn:lanes:backward":"left|none"},"geometry":{"type":"LineString","coordinates":[[-76.495421,44.2417067],[-76.4956886,44.2416486]]}},{"type":"Feature","properties":{"name":"University Avenue","cycleway":"lane","highway":"tertiary","lanes":"2","lit":"yes","maxspeed":"40","old_name":"Gordon Street","sidewalk":"separate","surface":"asphalt"},"geometry":{"type":"LineString","coordinates":[[-76.4955849,44.2289177],[-76.4955862,44.2290347],[-76.4956096,44.229808]]}},{"type":"Feature","properties":{"name":"Highway 15","alt_name":"County Road 15","highway":"secondary","lanes":"2","lit":"no","maxspeed":"60","ref":"15","short_name":"Hwy 15","sidewalk":"no","surface":"asphalt"},"geometry":{"type":"LineString","coordinates":[[-76.4602012,44.2598597],[-76.4601437,44.2600403]]}},{"type":"Feature","properties":{"name":"John Counter Boulevard","cycleway:right":"lane","highway":"secondary","lanes":"4","lcn":"yes","lit":"yes","maxspeed":"60","note":"Widened from 2 to 4 lanes in 2013","oneway":"yes","sidewalk":"separate","surface":"asphalt"},"geometry":{"type":"LineString","coordinates":[[-76.5058096,44.2594463],[-76.506032,44.2594404],[-76.506262,44.2594324]]}},{"type":"Feature","properties":{"name":"Highway 15","alt_name":"County Road 15","highway":"secondary","lanes":"2","maxspeed":"60","ref":"15","short_name":"Hwy 15","sidewalk":"right","surface":"asphalt"},"geometry":{"type":"LineString","coordinates":[[-76.4605938,44.2536527],[-76.4605193,44.2548221],[-76.4605184,44.2549009]]}},{"type":"Feature","properties":{"name":"Montreal Street","cycleway":"lane","highway":"secondary","lanes":"2","lit":"yes","sidewalk":"separate","surface":"asphalt"},"geometry":{"type":"LineString","coordinates":[[-76.4867639,44.2483204],[-76.4866116,44.2485926]]}},{"type":"Feature","properties":{"name":"Ontario Street","highway":"primary","lanes":"2","lit":"yes","note":"Former provincial highway - downloaded in 1998 - sections in Kingston are now designated \"Kingston 2\"","ref":"2","sidewalk":"separate","surface":"asphalt"},"geometry":{"type":"LineString","coordinates":[[-76.4792043,44.2319875],[-76.4792273,44.2319123],[-76.4794455,44.2311845],[-76.4794692,44.2311069]]}},{"type":"Feature","properties":{"name":"Ontario Street","highway":"secondary","lanes":"2","lit":"yes","sidewalk":"separate","surface":"asphalt"},"geometry":{"type":"LineString","coordinates":[[-76.4835884,44.2260955],[-76.4837857,44.2258763],[-76.4840466,44.2255864],[-76.4842079,44.2254072],[-76.4842784,44.2253326]]}},{"type":"Feature","properties":{"name":"King Street West","highway":"secondary","lanes":"2","lit":"yes","maxspeed":"40","sidewalk":"separate","surface":"asphalt"},"geometry":{"type":"LineString","coordinates":[[-76.4950891,44.222972],[-76.4954022,44.2229433],[-76.4964218,44.2228351],[-76.4980986,44.2226704],[-76.4981811,44.2226623],[-76.4982518,44.2226553],[-76.4993237,44.2225501],[-76.4994429,44.2225384]]}},{"type":"Feature","properties":{"name":"King Street West","highway":"secondary","lanes":"2","lit":"yes","maxspeed":"50","sidewalk":"separate","surface":"asphalt"},"geometry":{"type":"LineString","coordinates":[[-76.4902921,44.2227885],[-76.4903839,44.2227702],[-76.4906208,44.2227443],[-76.4910567,44.2227171],[-76.4914231,44.2226942],[-76.4916798,44.2226775],[-76.4918452,44.2226692],[-76.4920011,44.2226614],[-76.4921884,44.2226621],[-76.4924058,44.222684],[-76.4924459,44.2226904],[-76.4925401,44.2227055],[-76.4926268,44.2227248]]}},{"type":"Feature","properties":{"name":"Concession Street","highway":"secondary","lanes":"2","lit":"yes","oneway":"yes","restriction":"no_right_turn","sidewalk":"separate","surface":"asphalt"},"geometry":{"type":"LineString","coordinates":[[-76.5110819,44.2414919],[-76.5114911,44.2413162],[-76.5115722,44.2412814]]}},{"type":"Feature","properties":{"name":"Highway 15","alt_name":"County Road 15","highway":"secondary","lanes":"2","lit":"yes","maxspeed":"60","oneway":"yes","ref":"15","short_name":"Hwy 15","sidewalk":"no","surface":"asphalt","turn:lanes":"left|"},"geometry":{"type":"LineString","coordinates":[[-76.4604077,44.2591984],[-76.4604188,44.2591048]]}},{"type":"Feature","properties":{"name":"Ontario Street","check_date":"2024-09-03","cycleway":"shared_lane","highway":"primary","lanes":"2","lit":"yes","maxspeed":"50","note":"Former provincial highway - downloaded in 1998 - sections in Kingston are now designated \"Kingston 2\"","ref":"2","sidewalk":"separate","surface":"asphalt"},"geometry":{"type":"LineString","coordinates":[[-76.4766804,44.2345101],[-76.4769733,44.2344863],[-76.4771156,44.2344708],[-76.4772442,44.2344505]]}},{"type":"Feature","properties":{"name":"John Counter Boulevard","cycleway:right":"lane","highway":"secondary","lanes":"4","lcn":"yes","lit":"yes","maxspeed":"60","note":"Widened from 2 to 4 lanes in 2013","oneway":"yes","sidewalk":"separate","surface":"asphalt"},"geometry":{"type":"LineString","coordinates":[[-76.517775,44.2590537],[-76.5181226,44.2590522],[-76.5183015,44.2590519]]}},{"type":"Feature","properties":{"name":"John Counter Boulevard","cycleway:right":"lane","highway":"secondary","lanes":"2","lcn":"yes","lit":"yes","maxspeed":"60","note":"Widened from 2 to 4 lanes in 2013","oneway":"yes","sidewalk":"separate","surface":"asphalt"},"geometry":{"type":"LineString","coordinates":[[-76.5147411,44.2589385],[-76.5130862,44.2590298],[-76.5118309,44.2591279],[-76.5097205,44.2592078],[-76.5094399,44.2592182],[-76.5092284,44.2592224],[-76.5064616,44.2592774],[-76.5062456,44.2592817]]}},{"type":"Feature","properties":{"name":"Sir John A. Macdonald Boulevard","expressway":"yes","highway":"secondary","lanes":"2","lit":"yes","maxspeed":"60","oneway":"yes","sidewalk":"no","surface":"asphalt"},"geometry":{"type":"LineString","coordinates":[[-76.519226,44.2582465],[-76.5189496,44.2540163],[-76.5188254,44.2530542],[-76.5185096,44.2517459],[-76.5184048,44.2509496],[-76.5183381,44.2501382]]}},{"type":"Feature","properties":{"name":"John Counter Boulevard","cycleway:right":"lane","highway":"secondary","lanes":"4","lcn":"yes","lit":"yes","maxspeed":"60","note":"Widened from 2 to 4 lanes in 2013","oneway":"yes","sidewalk":"separate","surface":"asphalt"},"geometry":{"type":"LineString","coordinates":[[-76.5164302,44.2589288],[-76.5160326,44.2589242],[-76.5147411,44.2589385]]}}]}